{"type": "FeatureCollection", "features": [{"type": "Feature", "properties": {"zone_id": 4, "zone": "Alphabet City", "borough": "Manhattan", "demand": 1632}, "geometry": {"type": "Polygon", "coordinates": [[[-73.97177, 40.72582], [-73.97179, 40.72581], [-73.97182, 40.72581], [-73.97186, 40.72558], [-73.97187, 40.7255], [-73.97188, 40.72542], [-73.97191, 40.72529], [-73.97193, 40.72518], [-73.97194, 40.72516], [-73.97196, 40.72504], [-73.972, 40.72484], [-73.97204, 40.72468], [-73.97207, 40.72456], [-73.97207, 40.72454], [-73.97208, 40.7245], [-73.97208, 40.72447], [-73.9721, 40.72442], [-73.97216, 40.72417], [-73.97217, 40.72413], [-73.97222, 40.72393], [-73.97223, 40.72385], [-73.97226, 40.72371], [-73.97232, 40.72346], [-73.97236, 40.72331], [-73.9724, 40.72315], [-73.97251, 40.7227], [-73.97289, 40.72109], [-73.97305, 40.72044], [-73.97313, 40.72009], [-73.97321, 40.71978], [-73.97333, 40.71936], [-73.97348, 40.71886], [-73.97465, 40.71884], [-73.97469, 40.71884], [-73.97474, 40.71884], [-73.97486, 40.71885], [-73.97491, 40.71886], [-73.97498, 40.71887], [-73.9751, 40.71888], [-73.97545, 40.71895], [-73.97551, 40.71896], [-73.97609, 40.71908], [-73.97636, 40.71913], [-73.97648, 40.71916], [-73.97674, 40.71921], [-73.97722, 40.71931], [-73.97803, 40.71964], [-73.97875, 40.71993], [-73.97966, 40.72021], [-73.98131, 40.72071], [-73.98217, 40.72097], [-73.983, 40.72122], [-73.98382, 40.72147], [-73.98378, 40.72154], [-73.98344, 40.72202], [-73.98296, 40.72267], [-73.98252, 40.72328], [-73.98208, 40.72388], [-73.98164, 40.72449], [-73.98121, 40.72507], [-73.98077, 40.72569], [-73.98033, 40.72628], [-73.97991, 40.72687], [-73.97947, 40.72747], [-73.979, 40.72811], [-73.97854, 40.72875], [-73.97806, 40.72938], [-73.97803, 40.72943], [-73.97739, 40.72916], [-73.9769, 40.72896], [-73.97627, 40.72869], [-73.97615, 40.72864], [-73.97613, 40.72864], [-73.9758, 40.72852], [-73.9757, 40.72847], [-73.9733, 40.72743], [-73.97205, 40.72688], [-73.97198, 40.72683], [-73.97191, 40.72679], [-73.97186, 40.72676], [-73.9718, 40.72671], [-73.97163, 40.72663], [-73.97167, 40.72639], [-73.9717, 40.72624], [-73.97172, 40.72612], [-73.97174, 40.726], [-73.97177, 40.72583], [-73.97177, 40.72582]]]}}, {"type": "Feature", "properties": {"zone_id": 7, "zone": "Astoria", "borough": "Queens", "demand": 1123}, "geometry": {"type": "Polygon", "coordinates": [[[-73.90414, 40.76752], [-73.90325, 40.7675], [-73.90301, 40.76751], [-73.90276, 40.7675], [-73.90251, 40.76749], [-73.90227, 40.76746], [-73.90203, 40.76742], [-73.90218, 40.76732], [-73.90256, 40.76694], [-73.90342, 40.76596], [-73.90351, 40.76585], [-73.90357, 40.76578], [-73.90361, 40.76573], [-73.90371, 40.7656], [-73.90451, 40.76459], [-73.90519, 40.76375], [-73.90566, 40.76317], [-73.90607, 40.76266], [-73.90626, 40.76242], [-73.90651, 40.76211], [-73.90678, 40.76178], [-73.90704, 40.76145], [-73.90742, 40.76098], [-73.90753, 40.76084], [-73.90779, 40.76052], [-73.9074, 40.76033], [-73.907, 40.76014], [-73.90631, 40.75984], [-73.90743, 40.7581], [-73.90783, 40.757], [-73.90795, 40.75668], [-73.90799, 40.75657], [-73.90802, 40.75647], [-73.90806, 40.75638], [-73.9081, 40.75627], [-73.90814, 40.75617], [-73.90817, 40.75608], [-73.90821, 40.75599], [-73.90824, 40.75589], [-73.90828, 40.7558], [-73.90831, 40.75571], [-73.90836, 40.75558], [-73.90841, 40.75545], [-73.90847, 40.75529], [-73.90851, 40.75521], [-73.90853, 40.75517], [-73.90855, 40.75514], [-73.9086, 40.75504], [-73.90862, 40.755], [-73.90866, 40.75494], [-73.90868, 40.75489], [-73.90871, 40.75483], [-73.90874, 40.75479], [-73.90877, 40.75473], [-73.90879, 40.75468], [-73.90901, 40.75428], [-73.90917, 40.75406], [-73.90922, 40.754], [-73.90923, 40.75399], [-73.90945, 40.75373], [-73.90969, 40.75347], [-73.90995, 40.75322], [-73.91023, 40.75298], [-73.91067, 40.75299], [-73.91257, 40.7533], [-73.91354, 40.75347], [-73.91446, 40.75368], [-73.91468, 40.75368], [-73.91547, 40.75379], [-73.91651, 40.75389], [-73.91763, 40.75386], [-73.91892, 40.75364], [-73.92028, 40.75334], [-73.92048, 40.75328], [-73.92162, 40.75303], [-73.92204, 40.75294], [-73.92297, 40.75273], [-73.92442, 40.7524], [-73.92563, 40.75214], [-73.92416, 40.75396], [-73.92495, 40.75434], [-73.92575, 40.75471], [-73.92655, 40.75508], [-73.92735, 40.75546], [-73.92815, 40.75584], [-73.92896, 40.75621], [-73.92975, 40.75658], [-73.93055, 40.75696], [-73.93135, 40.75733], [-73.93215, 40.75771], [-73.93335, 40.75827], [-73.93425, 40.75869], [-73.93496, 40.75902], [-73.93503, 40.75906], [-73.93506, 40.75907], [-73.9358, 40.75942], [-73.93588, 40.75946], [-73.93679, 40.75988], [-73.93606, 40.76065], [-73.93602, 40.76069], [-73.93593, 40.76078], [-73.93589, 40.76082], [-73.93584, 40.76087], [-73.93581, 40.76091], [-73.93577, 40.76095], [-73.9357, 40.76103], [-73.93566, 40.76106], [-73.93561, 40.76112], [-73.93557, 40.76117], [-73.9355, 40.76123], [-73.93547, 40.76127], [-73.93543, 40.76131], [-73.93539, 40.76135], [-73.93481, 40.76196], [-73.93472, 40.76205], [-73.93464, 40.76214], [-73.93457, 40.76221], [-73.93437, 40.76242], [-73.9343, 40.76249], [-73.93411, 40.76269], [-73.93404, 40.76276], [-73.93398, 40.76283], [-73.93541, 40.7635], [-73.93615, 40.76384], [-73.93617, 40.76385], [-73.93619, 40.76386], [-73.93622, 40.76388], [-73.93626, 40.76389], [-73.93684, 40.76416], [-73.93687, 40.76418], [-73.937, 40.76424], [-73.93601, 40.76588], [-73.93682, 40.76618], [-73.93764, 40.76647], [-73.93846, 40.76677], [-73.93859, 40.76682], [-73.93836, 40.76691], [-73.93709, 40.76736], [-73.93618, 40.76769], [-73.93595, 40.76758], [-73.93493, 40.76701], [-73.93423, 40.76785], [-73.93344, 40.76882], [-73.93202, 40.76826], [-73.92986, 40.76733], [-73.92856, 40.76671], [-73.92644, 40.76573], [-73.92506, 40.7651], [-73.92425, 40.76472], [-73.92354, 40.7656], [-73.92219, 40.76727], [-73.92139, 40.76689], [-73.92059, 40.76652], [-73.91978, 40.76615], [-73.91891, 40.76723], [-73.91849, 40.76773], [-73.91911, 40.76802], [-73.91996, 40.76844], [-73.91829, 40.76988], [-73.91812, 40.77003], [-73.91759, 40.7699], [-73.91682, 40.76979], [-73.91644, 40.76973], [-73.91585, 40.76963], [-73.91487, 40.76947], [-73.91389, 40.76932], [-73.91292, 40.76916], [-73.91194, 40.76901], [-73.91094, 40.76885], [-73.90998, 40.7687], [-73.90901, 40.76855], [-73.90803, 40.76838], [-73.90709, 40.76824], [-73.90611, 40.76807], [-73.90577, 40.76803], [-73.90555, 40.76798], [-73.90532, 40.7679], [-73.90491, 40.76774], [-73.90447, 40.76758], [-73.90427, 40.76754], [-73.90419, 40.76753], [-73.90414, 40.76752]]]}}, {"type": "Feature", "properties": {"zone_id": 13, "zone": "Battery Park City", "borough": "Manhattan", "demand": 913}, "geometry": {"type": "Polygon", "coordinates": [[[-74.01244, 40.71906], [-74.01282, 40.71736], [-74.01287, 40.71718], [-74.01305, 40.71645], [-74.01323, 40.71566], [-74.01335, 40.71523], [-74.01348, 40.71511], [-74.01359, 40.71449], [-74.01375, 40.71369], [-74.01405, 40.71244], [-74.01418, 40.71188], [-74.01427, 40.71147], [-74.01446, 40.71091], [-74.01466, 40.71043], [-74.01482, 40.70982], [-74.01487, 40.70968], [-74.01495, 40.70943], [-74.01534, 40.7085], [-74.01559, 40.70788], [-74.01564, 40.70776], [-74.01569, 40.70766], [-74.01572, 40.70758], [-74.01585, 40.70725], [-74.01586, 40.7072], [-74.01589, 40.70714], [-74.0159, 40.70709], [-74.01594, 40.70701], [-74.01606, 40.7067], [-74.0162, 40.70626], [-74.01625, 40.70607], [-74.0164, 40.70567], [-74.01662, 40.70509], [-74.01665, 40.70496], [-74.01669, 40.7048], [-74.01669, 40.70474], [-74.01676, 40.70474], [-74.01685, 40.70463], [-74.01713, 40.70428], [-74.01757, 40.70418], [-74.01779, 40.70423], [-74.01786, 40.70408], [-74.01775, 40.70405], [-74.01779, 40.70395], [-74.01782, 40.70394], [-74.01784, 40.70396], [-74.01781, 40.70403], [-74.01791, 40.70405], [-74.01794, 40.70397], [-74.01795, 40.70398], [-74.01784, 40.70424], [-74.01845, 40.70416], [-74.01867, 40.70443], [-74.01866, 40.70444], [-74.01752, 40.70458], [-74.01748, 40.70467], [-74.01753, 40.70467], [-74.01755, 40.70466], [-74.01756, 40.70467], [-74.01757, 40.70466], [-74.01757, 40.70467], [-74.01757, 40.70467], [-74.0176, 40.70468], [-74.01763, 40.70468], [-74.01768, 40.70468], [-74.01769, 40.70467], [-74.01772, 40.70468], [-74.01773, 40.70467], [-74.01775, 40.70468], [-74.01777, 40.70467], [-74.01777, 40.70466], [-74.01778, 40.70467], [-74.0178, 40.70467], [-74.01781, 40.70466], [-74.01783, 40.70466], [-74.01784, 40.70466], [-74.0179, 40.70465], [-74.01791, 40.70466], [-74.01794, 40.70466], [-74.01794, 40.70465], [-74.01797, 40.70465], [-74.01798, 40.70464], [-74.01799, 40.70465], [-74.018, 40.70465], [-74.01801, 40.70464], [-74.01802, 40.70465], [-74.01804, 40.70463], [-74.01805, 40.70463], [-74.01806, 40.70464], [-74.01811, 40.70455], [-74.01886, 40.70472], [-74.01889, 40.70473], [-74.01893, 40.70477], [-74.01934, 40.70607], [-74.01934, 40.70609], [-74.01922, 40.70657], [-74.01912, 40.70698], [-74.0191, 40.707], [-74.01909, 40.707], [-74.01907, 40.70701], [-74.01903, 40.70701], [-74.01895, 40.707], [-74.01895, 40.70702], [-74.01894, 40.70703], [-74.01893, 40.70704], [-74.01891, 40.70706], [-74.01888, 40.70709], [-74.01886, 40.7071], [-74.01883, 40.70712], [-74.0188, 40.70713], [-74.01876, 40.70714], [-74.01873, 40.70714], [-74.01869, 40.70714], [-74.01866, 40.70714], [-74.01863, 40.70714], [-74.01858, 40.70712], [-74.01855, 40.70711], [-74.01857, 40.70708], [-74.01861, 40.7071], [-74.01863, 40.7071], [-74.01864, 40.70711], [-74.01865, 40.70708], [-74.01869, 40.70708], [-74.01872, 40.70708], [-74.01875, 40.70708], [-74.01876, 40.70708], [-74.01875, 40.70705], [-74.01877, 40.70704], [-74.01879, 40.70703], [-74.01882, 40.70702], [-74.01884, 40.70699], [-74.01885, 40.70698], [-74.01885, 40.70697], [-74.01881, 40.70697], [-74.0188, 40.70698], [-74.01878, 40.707], [-74.01874, 40.70701], [-74.01872, 40.70701], [-74.01869, 40.70701], [-74.01868, 40.70702], [-74.01865, 40.70702], [-74.01863, 40.70701], [-74.01861, 40.707], [-74.0186, 40.70699], [-74.0186, 40.70697], [-74.01859, 40.70696], [-74.01858, 40.70695], [-74.01857, 40.70694], [-74.01857, 40.70692], [-74.01856, 40.70691], [-74.01855, 40.70691], [-74.01853, 40.70692], [-74.01853, 40.70695], [-74.01841, 40.70726], [-74.01822, 40.70774], [-74.01822, 40.70775], [-74.01819, 40.70782], [-74.01866, 40.70792], [-74.01865, 40.70795], [-74.0188, 40.70798], [-74.01883, 40.708], [-74.01883, 40.708], [-74.01885, 40.70802], [-74.01885, 40.70805], [-74.01875, 40.70848], [-74.01863, 40.70894], [-74.01847, 40.70959], [-74.01834, 40.71011], [-74.01826, 40.71041], [-74.01814, 40.71089], [-74.01811, 40.71103], [-74.01805, 40.71134], [-74.01798, 40.71176], [-74.01792, 40.71204], [-74.01787, 40.71231], [-74.01777, 40.71283], [-74.01775, 40.71285], [-74.01773, 40.71285], [-74.01772, 40.71284], [-74.01772, 40.71278], [-74.0178, 40.71234], [-74.01662, 40.71216], [-74.01654, 40.71246], [-74.01659, 40.71255], [-74.01662, 40.71265], [-74.01662, 40.71276], [-74.01659, 40.71286], [-74.01656, 40.71293], [-74.01654, 40.71296], [-74.01648, 40.71303], [-74.01639, 40.7131], [-74.01632, 40.71341], [-74.01654, 40.71344], [-74.01691, 40.7135], [-74.01754, 40.71361], [-74.01757, 40.71352], [-74.01758, 40.71344], [-74.01765, 40.71321], [-74.01765, 40.71316], [-74.01767, 40.71307], [-74.01767, 40.71307], [-74.01768, 40.71306], [-74.01768, 40.71306], [-74.01768, 40.71306], [-74.01769, 40.71306], [-74.01769, 40.71306], [-74.0177, 40.71306], [-74.0177, 40.71306], [-74.01771, 40.71306], [-74.01771, 40.71306], [-74.01771, 40.71306], [-74.01772, 40.71306], [-74.01772, 40.71306], [-74.01772, 40.71307], [-74.01772, 40.71307], [-74.01771, 40.71317], [-74.01762, 40.71365], [-74.01754, 40.7141], [-74.01741, 40.71481], [-74.01738, 40.71494], [-74.01726, 40.71559], [-74.01712, 40.71637], [-74.01698, 40.71713], [-74.01686, 40.71779], [-74.01671, 40.71862], [-74.01669, 40.71865], [-74.01666, 40.71867], [-74.01663, 40.71866], [-74.01595, 40.71858], [-74.01594, 40.71859], [-74.01567, 40.71855], [-74.01567, 40.71854], [-74.01555, 40.71852], [-74.015, 40.71845], [-74.015, 40.71847], [-74.01499, 40.71851], [-74.01498, 40.71852], [-74.01497, 40.71854], [-74.01494, 40.71854], [-74.0147, 40.71852], [-74.01321, 40.71832], [-74.01307, 40.71892], [-74.01307, 40.71894], [-74.01303, 40.71913], [-74.0127, 40.71909], [-74.01255, 40.71907], [-74.01244, 40.71906]]]}}, {"type": "Feature", "properties": {"zone_id": 41, "zone": "Central Harlem", "borough": "Manhattan", "demand": 1348}, "geometry": {"type": "Polygon", "coordinates": [[[-73.94774, 40.8096], [-73.94506, 40.80847], [-73.94499, 40.80845], [-73.94492, 40.80841], [-73.94177, 40.80709], [-73.94226, 40.80642], [-73.94275, 40.80574], [-73.9443, 40.80639], [-73.94478, 40.80576], [-73.94524, 40.80514], [-73.94569, 40.80451], [-73.94613, 40.80388], [-73.9446, 40.80323], [-73.94476, 40.803], [-73.94505, 40.8026], [-73.94551, 40.80197], [-73.94597, 40.80134], [-73.94646, 40.80066], [-73.94697, 40.79996], [-73.94728, 40.79954], [-73.94733, 40.79948], [-73.94738, 40.79941], [-73.94742, 40.79935], [-73.94771, 40.79895], [-73.94776, 40.79889], [-73.94782, 40.79881], [-73.94785, 40.79876], [-73.94805, 40.79848], [-73.9481, 40.79842], [-73.94815, 40.79834], [-73.94821, 40.79827], [-73.94831, 40.79813], [-73.94879, 40.79748], [-73.9491, 40.79706], [-73.94922, 40.79691], [-73.9496, 40.79705], [-73.95237, 40.79821], [-73.95245, 40.79824], [-73.95254, 40.79827], [-73.95516, 40.79938], [-73.95522, 40.7994], [-73.95529, 40.79943], [-73.95537, 40.79947], [-73.95786, 40.80051], [-73.95817, 40.80058], [-73.95848, 40.80067], [-73.95965, 40.80116], [-73.95915, 40.80184], [-73.95869, 40.80247], [-73.95825, 40.80311], [-73.9582, 40.80389], [-73.95825, 40.80471], [-73.95818, 40.8056], [-73.95772, 40.80629], [-73.95727, 40.80692], [-73.95681, 40.80755], [-73.95634, 40.80817], [-73.95588, 40.8088], [-73.95543, 40.80943], [-73.95497, 40.81006], [-73.95358, 40.80948], [-73.95328, 40.80988], [-73.95308, 40.81009], [-73.95259, 40.81076], [-73.9521, 40.81144], [-73.95068, 40.81084], [-73.94792, 40.80968], [-73.94784, 40.80964], [-73.94774, 40.8096]]]}}, {"type": "Feature", "properties": {"zone_id": 42, "zone": "Central Harlem North", "borough": "Manhattan", "demand": 893}, "geometry": {"type": "Polygon", "coordinates": [[[-73.93436, 40.8362], [-73.93445, 40.83598], [-73.93456, 40.83587], [-73.93475, 40.83559], [-73.93475, 40.83557], [-73.9348, 40.83543], [-73.93482, 40.8354], [-73.93483, 40.83539], [-73.93485, 40.83535], [-73.93487, 40.83533], [-73.93489, 40.83525], [-73.93492, 40.83523], [-73.93494, 40.83508], [-73.93494, 40.83503], [-73.93496, 40.83488], [-73.93498, 40.83479], [-73.93499, 40.83475], [-73.93495, 40.83471], [-73.93496, 40.83468], [-73.93497, 40.83466], [-73.93497, 40.83463], [-73.93497, 40.83462], [-73.93497, 40.83461], [-73.93499, 40.8346], [-73.93503, 40.83439], [-73.93504, 40.8343], [-73.93503, 40.83425], [-73.93504, 40.83421], [-73.93508, 40.83392], [-73.93507, 40.83389], [-73.93508, 40.83387], [-73.9351, 40.83371], [-73.9351, 40.83368], [-73.9351, 40.83366], [-73.93511, 40.83343], [-73.93512, 40.83338], [-73.93512, 40.83335], [-73.93513, 40.83334], [-73.93513, 40.83333], [-73.93513, 40.83329], [-73.93512, 40.83328], [-73.93514, 40.83326], [-73.93514, 40.83324], [-73.93513, 40.83323], [-73.93512, 40.8332], [-73.93512, 40.83319], [-73.93512, 40.83318], [-73.93513, 40.83316], [-73.93514, 40.83315], [-73.93513, 40.83314], [-73.93512, 40.83305], [-73.93512, 40.83303], [-73.93512, 40.83302], [-73.93511, 40.833], [-73.93512, 40.83298], [-73.93512, 40.83297], [-73.93512, 40.83294], [-73.93512, 40.8329], [-73.93513, 40.8329], [-73.93514, 40.83288], [-73.93517, 40.83287], [-73.93516, 40.83285], [-73.93516, 40.83268], [-73.93513, 40.83236], [-73.93511, 40.83237], [-73.93508, 40.83194], [-73.9351, 40.83194], [-73.93509, 40.83186], [-73.93507, 40.8317], [-73.93502, 40.83132], [-73.93498, 40.83103], [-73.93493, 40.8306], [-73.93489, 40.83029], [-73.93483, 40.82981], [-73.9348, 40.82979], [-73.9348, 40.82977], [-73.93479, 40.82977], [-73.93479, 40.82976], [-73.93478, 40.82974], [-73.93477, 40.82972], [-73.93476, 40.8297], [-73.93476, 40.82966], [-73.93474, 40.82964], [-73.93474, 40.82961], [-73.93475, 40.8296], [-73.93474, 40.82957], [-73.93472, 40.82955], [-73.93473, 40.82953], [-73.93471, 40.82949], [-73.9347, 40.82944], [-73.93469, 40.82942], [-73.93471, 40.8294], [-73.9347, 40.82934], [-73.93469, 40.82933], [-73.93468, 40.82931], [-73.93466, 40.82918], [-73.93468, 40.82917], [-73.93471, 40.82916], [-73.9347, 40.82913], [-73.93468, 40.82913], [-73.93468, 40.82912], [-73.93467, 40.82911], [-73.93465, 40.8291], [-73.93465, 40.82905], [-73.93466, 40.82904], [-73.93466, 40.82901], [-73.93466, 40.82897], [-73.93466, 40.82894], [-73.93465, 40.82891], [-73.93464, 40.82891], [-73.93462, 40.82869], [-73.93461, 40.82869], [-73.9346, 40.82868], [-73.93461, 40.82866], [-73.93461, 40.82865], [-73.93461, 40.82865], [-73.9346, 40.82865], [-73.9346, 40.8286], [-73.9346, 40.82859], [-73.93461, 40.82857], [-73.93461, 40.82852], [-73.93461, 40.8285], [-73.93461, 40.82846], [-73.9346, 40.82843], [-73.93461, 40.8284], [-73.9346, 40.82838], [-73.93461, 40.82836], [-73.9346, 40.82834], [-73.9346, 40.82833], [-73.93459, 40.8283], [-73.93459, 40.82826], [-73.9346, 40.82825], [-73.93459, 40.82824], [-73.93459, 40.82823], [-73.9346, 40.82821], [-73.93459, 40.8282], [-73.93459, 40.82816], [-73.93456, 40.82816], [-73.93456, 40.82812], [-73.93455, 40.82805], [-73.93454, 40.82803], [-73.93453, 40.82797], [-73.93452, 40.82791], [-73.93454, 40.8279], [-73.93453, 40.82785], [-73.93452, 40.82777], [-73.93452, 40.82773], [-73.93442, 40.82704], [-73.93448, 40.82704], [-73.93446, 40.82684], [-73.93443, 40.82647], [-73.93437, 40.82583], [-73.93436, 40.82582], [-73.93433, 40.82523], [-73.9343, 40.82465], [-73.93429, 40.8245], [-73.93427, 40.82444], [-73.93425, 40.82417], [-73.93422, 40.8238], [-73.93417, 40.82308], [-73.93415, 40.82303], [-73.93415, 40.82302], [-73.93413, 40.8228], [-73.93412, 40.82265], [-73.93412, 40.82252], [-73.9341, 40.8222], [-73.9341, 40.82214], [-73.9341, 40.8221], [-73.93409, 40.822], [-73.93408, 40.82181], [-73.93407, 40.82172], [-73.93408, 40.82169], [-73.93407, 40.82156], [-73.93404, 40.82118], [-73.93405, 40.82113], [-73.93404, 40.82095], [-73.93403, 40.82082], [-73.934, 40.8204], [-73.934, 40.82034], [-73.93398, 40.82], [-73.93399, 40.81997], [-73.93397, 40.81973], [-73.93383, 40.81972], [-73.93383, 40.8196], [-73.93383, 40.81957], [-73.93383, 40.81952], [-73.93412, 40.81955], [-73.93431, 40.81963], [-73.9344, 40.81967], [-73.93439, 40.81959], [-73.93438, 40.81933], [-73.93429, 40.8189], [-73.93424, 40.81865], [-73.93408, 40.81793], [-73.93407, 40.81783], [-73.93413, 40.81773], [-73.93424, 40.81755], [-73.93445, 40.81719], [-73.93464, 40.81691], [-73.93487, 40.81653], [-73.93576, 40.81533], [-73.93614, 40.81479], [-73.93621, 40.81467], [-73.93669, 40.81404], [-73.93714, 40.81342], [-73.93763, 40.81275], [-73.93814, 40.81207], [-73.93821, 40.81197], [-73.93831, 40.81182], [-73.93839, 40.81172], [-73.93864, 40.81138], [-73.93874, 40.81123], [-73.93902, 40.81086], [-73.93741, 40.81018], [-73.93581, 40.8095], [-73.93586, 40.80943], [-73.93626, 40.80886], [-73.93672, 40.80822], [-73.93718, 40.8076], [-73.93763, 40.80697], [-73.93809, 40.80635], [-73.93854, 40.80573], [-73.93869, 40.80579], [-73.94016, 40.80641], [-73.94177, 40.80709], [-73.94492, 40.80841], [-73.94499, 40.80845], [-73.94506, 40.80847], [-73.94774, 40.8096], [-73.94784, 40.80964], [-73.94792, 40.80968], [-73.95068, 40.81084], [-73.9521, 40.81144], [-73.95151, 40.81201], [-73.95098, 40.81252], [-73.95093, 40.81257], [-73.95035, 40.81316], [-73.94986, 40.8138], [-73.94963, 40.8141], [-73.94963, 40.8141], [-73.94963, 40.8141], [-73.94941, 40.81441], [-73.9492, 40.81472], [-73.94901, 40.81504], [-73.94883, 40.81536], [-73.94868, 40.81569], [-73.94836, 40.81637], [-73.94801, 40.81712], [-73.94767, 40.81785], [-73.94735, 40.81853], [-73.94704, 40.81921], [-73.94672, 40.81989], [-73.9464, 40.82057], [-73.94608, 40.82126], [-73.94515, 40.82088], [-73.9446, 40.82146], [-73.94405, 40.82205], [-73.94351, 40.82263], [-73.94292, 40.82326], [-73.94243, 40.82391], [-73.94196, 40.82455], [-73.9415, 40.82517], [-73.94105, 40.82579], [-73.94059, 40.82641], [-73.94014, 40.82704], [-73.93969, 40.82766], [-73.93925, 40.8283], [-73.93896, 40.82899], [-73.93864, 40.82974], [-73.939, 40.82989], [-73.93963, 40.83016], [-73.94017, 40.83038], [-73.94008, 40.83046], [-73.93999, 40.83073], [-73.93996, 40.83082], [-73.93996, 40.83082], [-73.93992, 40.83091], [-73.93992, 40.83091], [-73.93992, 40.83091], [-73.93987, 40.83099], [-73.93987, 40.83099], [-73.93987, 40.83099], [-73.9398, 40.83107], [-73.9398, 40.83107], [-73.9398, 40.83107], [-73.93973, 40.83114], [-73.93961, 40.83125], [-73.93961, 40.83125], [-73.93961, 40.83125], [-73.9395, 40.83137], [-73.93941, 40.83149], [-73.93941, 40.83149], [-73.93933, 40.83163], [-73.93927, 40.83176], [-73.93927, 40.83176], [-73.93927, 40.83176], [-73.93923, 40.8319], [-73.93913, 40.8321], [-73.93903, 40.83229], [-73.93895, 40.83242], [-73.93891, 40.83248], [-73.93877, 40.83266], [-73.93868, 40.8328], [-73.93863, 40.83286], [-73.93857, 40.83291], [-73.93838, 40.83311], [-73.93796, 40.83345], [-73.9373, 40.83398], [-73.93706, 40.83417], [-73.93701, 40.83419], [-73.9365, 40.83457], [-73.93573, 40.83516], [-73.93531, 40.83548], [-73.93506, 40.83568], [-73.93496, 40.83576], [-73.93486, 40.83598], [-73.9348, 40.83611], [-73.93475, 40.83609], [-73.93467, 40.83606], [-73.9346, 40.8361], [-73.93436, 40.8362]]]}}, {"type": "Feature", "properties": {"zone_id": 74, "zone": "East Harlem North", "borough": "Manhattan", "demand": 1328}, "geometry": {"type": "MultiPolygon", "coordinates": [[[[-73.93381, 40.81651], [-73.93383, 40.81558], [-73.93395, 40.81559], [-73.93395, 40.81558], [-73.93394, 40.81556], [-73.93395, 40.81556], [-73.93395, 40.81554], [-73.93394, 40.81553], [-73.93394, 40.81552], [-73.93395, 40.8155], [-73.93395, 40.81549], [-73.93393, 40.81547], [-73.93395, 40.81544], [-73.93394, 40.81542], [-73.93395, 40.8154], [-73.93395, 40.81539], [-73.93396, 40.81537], [-73.93395, 40.81535], [-73.93395, 40.81532], [-73.93395, 40.81529], [-73.93395, 40.81527], [-73.93395, 40.81523], [-73.93394, 40.8152], [-73.93395, 40.81517], [-73.93395, 40.81515], [-73.93396, 40.81513], [-73.93397, 40.8151], [-73.93396, 40.81507], [-73.93397, 40.81504], [-73.93399, 40.81495], [-73.93399, 40.81491], [-73.93398, 40.8149], [-73.93398, 40.81487], [-73.93397, 40.81485], [-73.93398, 40.81482], [-73.93397, 40.81479], [-73.93399, 40.81477], [-73.93398, 40.81476], [-73.93399, 40.81474], [-73.934, 40.81472], [-73.93398, 40.8147], [-73.93398, 40.81468], [-73.93399, 40.81463], [-73.93398, 40.8146], [-73.93397, 40.81456], [-73.93399, 40.81453], [-73.93401, 40.81448], [-73.93386, 40.81448], [-73.93386, 40.81425], [-73.93386, 40.81419], [-73.93386, 40.81415], [-73.93387, 40.8141], [-73.93387, 40.81406], [-73.93393, 40.81335], [-73.93398, 40.81281], [-73.93401, 40.81261], [-73.93404, 40.81234], [-73.93409, 40.81197], [-73.93414, 40.81171], [-73.9342, 40.81139], [-73.93428, 40.81082], [-73.9343, 40.81048], [-73.93431, 40.81032], [-73.93434, 40.80993], [-73.93434, 40.80956], [-73.93421, 40.80906], [-73.9342, 40.80903], [-73.93414, 40.80874], [-73.93412, 40.80866], [-73.93356, 40.8076], [-73.93333, 40.80732], [-73.93326, 40.80724], [-73.93318, 40.80716], [-73.93317, 40.80714], [-73.93308, 40.80703], [-73.93293, 40.80687], [-73.93263, 40.80655], [-73.93239, 40.8063], [-73.93154, 40.8054], [-73.9315, 40.80535], [-73.93148, 40.80533], [-73.93147, 40.80531], [-73.93145, 40.8053], [-73.93143, 40.80528], [-73.93141, 40.80525], [-73.93139, 40.80523], [-73.9313, 40.80513], [-73.93127, 40.80509], [-73.93116, 40.80497], [-73.93113, 40.80492], [-73.93111, 40.8049], [-73.9311, 40.80488], [-73.93107, 40.80485], [-73.93103, 40.80479], [-73.93103, 40.80478], [-73.93098, 40.80472], [-73.93097, 40.80471], [-73.93096, 40.80469], [-73.93093, 40.80465], [-73.93091, 40.80462], [-73.93083, 40.80451], [-73.9308, 40.80447], [-73.93071, 40.80436], [-73.93071, 40.80434], [-73.93069, 40.80433], [-73.93069, 40.80431], [-73.93064, 40.80425], [-73.93063, 40.80423], [-73.93061, 40.80421], [-73.93057, 40.80415], [-73.93057, 40.80414], [-73.93054, 40.80411], [-73.93044, 40.80398], [-73.9304, 40.80392], [-73.93035, 40.80385], [-73.93033, 40.80382], [-73.93031, 40.80379], [-73.93028, 40.80374], [-73.93026, 40.80371], [-73.93019, 40.80358], [-73.93018, 40.80358], [-73.93006, 40.80336], [-73.93001, 40.80329], [-73.92996, 40.80318], [-73.92997, 40.80318], [-73.93004, 40.80308], [-73.92993, 40.8029], [-73.92991, 40.80286], [-73.92989, 40.80283], [-73.92979, 40.80266], [-73.92969, 40.80244], [-73.92958, 40.80218], [-73.92952, 40.80205], [-73.92945, 40.80191], [-73.92944, 40.80186], [-73.92935, 40.80167], [-73.92933, 40.8016], [-73.9293, 40.8015], [-73.92927, 40.80137], [-73.92921, 40.80115], [-73.92912, 40.80111], [-73.92903, 40.80108], [-73.92903, 40.80097], [-73.92902, 40.80089], [-73.92902, 40.80083], [-73.92901, 40.80077], [-73.929, 40.80071], [-73.92899, 40.8006], [-73.92895, 40.80031], [-73.92894, 40.80017], [-73.9289, 40.79985], [-73.92892, 40.79946], [-73.92894, 40.79891], [-73.92897, 40.79826], [-73.92904, 40.79676], [-73.92928, 40.79585], [-73.92931, 40.79581], [-73.92953, 40.79551], [-73.92968, 40.7953], [-73.92975, 40.79521], [-73.92987, 40.79503], [-73.92984, 40.79501], [-73.92985, 40.795], [-73.92981, 40.79498], [-73.92983, 40.79495], [-73.92989, 40.79497], [-73.9299, 40.79495], [-73.92992, 40.79495], [-73.92994, 40.79492], [-73.92992, 40.79491], [-73.93007, 40.7947], [-73.93011, 40.79471], [-73.9302, 40.79459], [-73.93042, 40.79447], [-73.93111, 40.7941], [-73.93143, 40.79393], [-73.93166, 40.7938], [-73.93179, 40.79373], [-73.93187, 40.79368], [-73.93201, 40.7936], [-73.93208, 40.79357], [-73.93235, 40.79341], [-73.93251, 40.79333], [-73.93254, 40.79332], [-73.93267, 40.79325], [-73.93288, 40.79313], [-73.93311, 40.79299], [-73.93325, 40.79291], [-73.93327, 40.7929], [-73.93348, 40.79277], [-73.93373, 40.7926], [-73.93389, 40.79249], [-73.93407, 40.79236], [-73.93427, 40.79222], [-73.93434, 40.79217], [-73.93451, 40.79205], [-73.93474, 40.7919], [-73.93505, 40.79169], [-73.93508, 40.79171], [-73.93514, 40.79175], [-73.93519, 40.7918], [-73.93524, 40.79183], [-73.93529, 40.79187], [-73.93543, 40.792], [-73.93555, 40.79184], [-73.93679, 40.7924], [-73.93774, 40.79282], [-73.93819, 40.79219], [-73.93865, 40.79156], [-73.94103, 40.79255], [-73.94327, 40.79349], [-73.94282, 40.79413], [-73.94235, 40.79476], [-73.94188, 40.79541], [-73.94233, 40.79559], [-73.94248, 40.79566], [-73.94275, 40.79577], [-73.94288, 40.79582], [-73.94348, 40.79607], [-73.94415, 40.79636], [-73.94421, 40.79639], [-73.94496, 40.79671], [-73.9451, 40.79676], [-73.94523, 40.79682], [-73.94556, 40.79696], [-73.94567, 40.79701], [-73.9467, 40.79745], [-73.94722, 40.79767], [-73.94831, 40.79813], [-73.94821, 40.79827], [-73.94815, 40.79834], [-73.9481, 40.79842], [-73.94805, 40.79848], [-73.94785, 40.79876], [-73.94782, 40.79881], [-73.94776, 40.79889], [-73.94771, 40.79895], [-73.94742, 40.79935], [-73.94738, 40.79941], [-73.94733, 40.79948], [-73.94728, 40.79954], [-73.94697, 40.79996], [-73.94646, 40.80066], [-73.94597, 40.80134], [-73.94551, 40.80197], [-73.94505, 40.8026], [-73.9446, 40.80323], [-73.94613, 40.80388], [-73.94569, 40.80451], [-73.94524, 40.80514], [-73.94478, 40.80576], [-73.9443, 40.80639], [-73.94275, 40.80574], [-73.94226, 40.80642], [-73.94177, 40.80709], [-73.94016, 40.80641], [-73.93869, 40.80579], [-73.93854, 40.80573], [-73.93809, 40.80635], [-73.93763, 40.80697], [-73.93718, 40.8076], [-73.93672, 40.80822], [-73.93626, 40.80886], [-73.93586, 40.80943], [-73.93581, 40.8095], [-73.93741, 40.81018], [-73.93902, 40.81086], [-73.93874, 40.81123], [-73.93864, 40.81138], [-73.93839, 40.81172], [-73.93831, 40.81182], [-73.93821, 40.81197], [-73.93814, 40.81207], [-73.93763, 40.81275], [-73.93714, 40.81342], [-73.93669, 40.81404], [-73.93621, 40.81467], [-73.93614, 40.81479], [-73.93576, 40.81533], [-73.93487, 40.81653], [-73.93464, 40.81691], [-73.93445, 40.81719], [-73.93424, 40.81755], [-73.93413, 40.81773], [-73.93407, 40.81783], [-73.93408, 40.81793], [-73.93424, 40.81865], [-73.93429, 40.8189], [-73.93438, 40.81933], [-73.93439, 40.81959], [-73.9344, 40.81967], [-73.93431, 40.81963], [-73.93412, 40.81955], [-73.93383, 40.81952], [-73.93383, 40.81947], [-73.93383, 40.81941], [-73.93383, 40.81936], [-73.9338, 40.81835], [-73.93379, 40.81778], [-73.93379, 40.81715], [-73.93381, 40.81651]]], [[[-73.92689, 40.80084], [-73.92651, 40.80066], [-73.92655, 40.8006], [-73.92685, 40.80074], [-73.92683, 40.80076], [-73.92687, 40.80078], [-73.927, 40.80064], [-73.92705, 40.80065], [-73.92689, 40.80084]]], [[[-73.92667, 40.80018], [-73.9267, 40.80015], [-73.92725, 40.80039], [-73.92711, 40.80056], [-73.92707, 40.80054], [-73.92717, 40.80041], [-73.92667, 40.80018]]], [[[-73.92672, 40.80041], [-73.92654, 40.80033], [-73.92655, 40.80031], [-73.92674, 40.8004], [-73.92674, 40.80041], [-73.92673, 40.80041], [-73.92672, 40.80041]]], [[[-73.92718, 40.79735], [-73.92735, 40.79732], [-73.92735, 40.79729], [-73.92767, 40.79722], [-73.92771, 40.7973], [-73.92738, 40.79738], [-73.92737, 40.79735], [-73.9272, 40.79739], [-73.92718, 40.79735]]]]}}, {"type": "Feature", "properties": {"zone_id": 75, "zone": "East Harlem South", "borough": "Manhattan", "demand": 1715}, "geometry": {"type": "Polygon", "coordinates": [[[-73.94103, 40.79255], [-73.93865, 40.79156], [-73.93819, 40.79219], [-73.93774, 40.79282], [-73.93679, 40.7924], [-73.93555, 40.79184], [-73.93543, 40.792], [-73.93529, 40.79187], [-73.93524, 40.79183], [-73.93519, 40.7918], [-73.93514, 40.79175], [-73.93508, 40.79171], [-73.93505, 40.79169], [-73.93511, 40.79165], [-73.93517, 40.7916], [-73.93527, 40.79153], [-73.93526, 40.79153], [-73.93519, 40.79147], [-73.93547, 40.79126], [-73.93554, 40.79132], [-73.93583, 40.79109], [-73.93602, 40.79083], [-73.93632, 40.79043], [-73.93669, 40.78991], [-73.93706, 40.78941], [-73.93705, 40.78941], [-73.93708, 40.78937], [-73.93707, 40.78935], [-73.93701, 40.78932], [-73.93614, 40.78895], [-73.93613, 40.78894], [-73.93613, 40.78893], [-73.93622, 40.7888], [-73.93623, 40.7888], [-73.93624, 40.7888], [-73.93715, 40.78917], [-73.93723, 40.789], [-73.9374, 40.78862], [-73.93742, 40.78858], [-73.93755, 40.78828], [-73.93763, 40.78809], [-73.93769, 40.78797], [-73.9377, 40.78796], [-73.93774, 40.78785], [-73.93777, 40.78778], [-73.93782, 40.78769], [-73.93795, 40.78748], [-73.93795, 40.78747], [-73.93796, 40.78746], [-73.93797, 40.78743], [-73.93812, 40.78718], [-73.93813, 40.78717], [-73.93819, 40.7871], [-73.93825, 40.78704], [-73.93854, 40.78671], [-73.93927, 40.78589], [-73.93983, 40.78526], [-73.93983, 40.78525], [-73.93984, 40.78525], [-73.93985, 40.78524], [-73.93988, 40.78523], [-73.93989, 40.78522], [-73.93991, 40.78521], [-73.93993, 40.7852], [-73.93995, 40.78519], [-73.93999, 40.78517], [-73.94001, 40.78516], [-73.94002, 40.78515], [-73.94005, 40.78514], [-73.94006, 40.78513], [-73.94011, 40.7851], [-73.94015, 40.78509], [-73.94018, 40.78507], [-73.9402, 40.78506], [-73.94022, 40.78504], [-73.94024, 40.78504], [-73.94027, 40.78502], [-73.94036, 40.78497], [-73.94045, 40.78492], [-73.94053, 40.78488], [-73.94055, 40.78487], [-73.94058, 40.78485], [-73.94059, 40.78485], [-73.94062, 40.78483], [-73.94067, 40.7848], [-73.94072, 40.78478], [-73.94072, 40.78478], [-73.94075, 40.78477], [-73.94077, 40.78476], [-73.94079, 40.78475], [-73.94083, 40.78473], [-73.94102, 40.78463], [-73.94109, 40.78461], [-73.94111, 40.7846], [-73.94114, 40.78458], [-73.94117, 40.78457], [-73.94145, 40.78443], [-73.94153, 40.78439], [-73.94167, 40.78431], [-73.94185, 40.78422], [-73.94201, 40.78414], [-73.94218, 40.78405], [-73.94231, 40.78398], [-73.94239, 40.78394], [-73.94243, 40.78392], [-73.94247, 40.7839], [-73.94257, 40.78382], [-73.9426, 40.7838], [-73.94267, 40.78375], [-73.94278, 40.78368], [-73.94287, 40.78362], [-73.94294, 40.78357], [-73.94302, 40.78351], [-73.94311, 40.78345], [-73.94316, 40.78341], [-73.94321, 40.78337], [-73.94324, 40.78333], [-73.94327, 40.78329], [-73.94331, 40.78323], [-73.94335, 40.78318], [-73.9434, 40.78311], [-73.94344, 40.78305], [-73.94355, 40.7829], [-73.94354, 40.78288], [-73.94361, 40.78286], [-73.94376, 40.78283], [-73.94383, 40.78286], [-73.94389, 40.78289], [-73.94395, 40.78291], [-73.94405, 40.78296], [-73.94465, 40.78322], [-73.94472, 40.78325], [-73.94707, 40.78424], [-73.94933, 40.78519], [-73.95034, 40.78562], [-73.95093, 40.78586], [-73.95245, 40.7865], [-73.95255, 40.78655], [-73.95266, 40.78659], [-73.95416, 40.78723], [-73.95578, 40.78791], [-73.95527, 40.78858], [-73.95482, 40.7892], [-73.9544, 40.78977], [-73.95389, 40.79047], [-73.95344, 40.79108], [-73.95298, 40.79172], [-73.95252, 40.79235], [-73.95207, 40.79297], [-73.9516, 40.79361], [-73.95111, 40.79428], [-73.95061, 40.79497], [-73.95016, 40.79559], [-73.9497, 40.79622], [-73.9494, 40.79663], [-73.94922, 40.79691], [-73.9491, 40.79706], [-73.94879, 40.79748], [-73.94831, 40.79813], [-73.94722, 40.79767], [-73.9467, 40.79745], [-73.94567, 40.79701], [-73.94556, 40.79696], [-73.94523, 40.79682], [-73.9451, 40.79676], [-73.94496, 40.79671], [-73.94421, 40.79639], [-73.94415, 40.79636], [-73.94348, 40.79607], [-73.94288, 40.79582], [-73.94275, 40.79577], [-73.94248, 40.79566], [-73.94233, 40.79559], [-73.94188, 40.79541], [-73.94235, 40.79476], [-73.94282, 40.79413], [-73.94327, 40.79349], [-73.94103, 40.79255]]]}}, {"type": "Feature", "properties": {"zone_id": 80, "zone": "East Williamsburg", "borough": "Brooklyn", "demand": 916}, "geometry": {"type": "Polygon", "coordinates": [[[-73.93175, 40.72805], [-73.93168, 40.72803], [-73.93167, 40.72804], [-73.93157, 40.72802], [-73.93121, 40.72794], [-73.9308, 40.72785], [-73.93072, 40.72784], [-73.93033, 40.72779], [-73.92992, 40.72764], [-73.92984, 40.72761], [-73.92966, 40.72754], [-73.92965, 40.72755], [-73.92963, 40.72756], [-73.92962, 40.72758], [-73.92963, 40.7276], [-73.92961, 40.72761], [-73.92958, 40.72761], [-73.9295, 40.72756], [-73.92942, 40.72751], [-73.92938, 40.72748], [-73.92924, 40.7274], [-73.92927, 40.72736], [-73.92887, 40.727], [-73.92849, 40.72661], [-73.92834, 40.72642], [-73.92816, 40.7262], [-73.92813, 40.72617], [-73.92805, 40.72607], [-73.92796, 40.72592], [-73.92794, 40.72588], [-73.92793, 40.72588], [-73.9279, 40.72588], [-73.92788, 40.72587], [-73.92787, 40.72585], [-73.92786, 40.72583], [-73.92786, 40.72575], [-73.92781, 40.72505], [-73.9278, 40.72493], [-73.9272, 40.72365], [-73.92561, 40.72006], [-73.92482, 40.72026], [-73.92482, 40.72022], [-73.92471, 40.72], [-73.92471, 40.71999], [-73.92474, 40.71998], [-73.92468, 40.71989], [-73.92461, 40.71979], [-73.92453, 40.71967], [-73.92452, 40.71961], [-73.92452, 40.71957], [-73.92452, 40.71955], [-73.92454, 40.71934], [-73.92455, 40.71928], [-73.92458, 40.71916], [-73.92463, 40.71899], [-73.92469, 40.71872], [-73.9247, 40.71869], [-73.92477, 40.71856], [-73.92482, 40.71849], [-73.92486, 40.71844], [-73.92493, 40.71841], [-73.92499, 40.71838], [-73.92509, 40.71838], [-73.92616, 40.7181], [-73.92638, 40.71808], [-73.92838, 40.71758], [-73.92839, 40.71758], [-73.9284, 40.71758], [-73.92842, 40.71758], [-73.92842, 40.71758], [-73.92843, 40.71759], [-73.92843, 40.71759], [-73.92843, 40.71759], [-73.92844, 40.7176], [-73.92845, 40.71761], [-73.92845, 40.71762], [-73.92845, 40.71762], [-73.92845, 40.71762], [-73.92846, 40.71762], [-73.92847, 40.71763], [-73.92848, 40.71763], [-73.92849, 40.71763], [-73.92851, 40.71763], [-73.92857, 40.71763], [-73.92859, 40.71763], [-73.92861, 40.71764], [-73.92864, 40.71765], [-73.92867, 40.71766], [-73.9287, 40.71767], [-73.92873, 40.71769], [-73.92874, 40.71769], [-73.92874, 40.7177], [-73.92877, 40.71772], [-73.92878, 40.71773], [-73.92878, 40.71773], [-73.92878, 40.71773], [-73.92879, 40.71773], [-73.9288, 40.71773], [-73.92881, 40.71774], [-73.92882, 40.71774], [-73.92884, 40.71773], [-73.92885, 40.71773], [-73.92887, 40.71773], [-73.92888, 40.71772], [-73.92889, 40.71771], [-73.92897, 40.71765], [-73.92898, 40.71764], [-73.92907, 40.71757], [-73.92909, 40.71756], [-73.92911, 40.71754], [-73.92912, 40.71753], [-73.92914, 40.71751], [-73.92914, 40.71751], [-73.92914, 40.71751], [-73.92914, 40.7175], [-73.92914, 40.71749], [-73.92914, 40.71746], [-73.92914, 40.71746], [-73.92915, 40.71745], [-73.92915, 40.71745], [-73.92916, 40.71744], [-73.92917, 40.71742], [-73.92919, 40.71741], [-73.9292, 40.7174], [-73.92957, 40.71722], [-73.92961, 40.71719], [-73.92964, 40.71716], [-73.92965, 40.71715], [-73.92967, 40.71712], [-73.92968, 40.7171], [-73.9297, 40.71707], [-73.92971, 40.71705], [-73.92971, 40.71704], [-73.92971, 40.71703], [-73.92971, 40.71702], [-73.92971, 40.71701], [-73.9297, 40.71699], [-73.92969, 40.71698], [-73.92969, 40.71697], [-73.92951, 40.71659], [-73.9295, 40.71658], [-73.9295, 40.71658], [-73.9295, 40.71657], [-73.92949, 40.71657], [-73.92949, 40.71656], [-73.92949, 40.71654], [-73.9295, 40.71653], [-73.9295, 40.71652], [-73.9295, 40.7165], [-73.92932, 40.71611], [-73.92932, 40.71608], [-73.92932, 40.71604], [-73.92932, 40.71601], [-73.92933, 40.71598], [-73.92934, 40.71594], [-73.92936, 40.7159], [-73.92938, 40.71585], [-73.9294, 40.71582], [-73.92942, 40.71578], [-73.92944, 40.71576], [-73.92946, 40.71573], [-73.92947, 40.71572], [-73.92949, 40.71571], [-73.9295, 40.7157], [-73.92951, 40.7157], [-73.92953, 40.71569], [-73.92954, 40.71568], [-73.92956, 40.71568], [-73.92958, 40.71568], [-73.9303, 40.71551], [-73.93149, 40.71521], [-73.93151, 40.71521], [-73.93153, 40.71521], [-73.93154, 40.71521], [-73.93156, 40.71521], [-73.93158, 40.71521], [-73.93166, 40.71521], [-73.93171, 40.7152], [-73.93175, 40.71519], [-73.93179, 40.71518], [-73.93183, 40.71517], [-73.9319, 40.71514], [-73.93199, 40.7151], [-73.93204, 40.71507], [-73.93208, 40.71506], [-73.9321, 40.71504], [-73.93213, 40.71502], [-73.93216, 40.71501], [-73.9322, 40.71497], [-73.93221, 40.71496], [-73.93221, 40.71495], [-73.93223, 40.71494], [-73.93223, 40.71492], [-73.93223, 40.7149], [-73.93223, 40.71489], [-73.93224, 40.71488], [-73.93223, 40.71486], [-73.93223, 40.71485], [-73.93222, 40.71481], [-73.9322, 40.71477], [-73.93217, 40.71472], [-73.93216, 40.71469], [-73.93215, 40.71469], [-73.93215, 40.71469], [-73.93214, 40.71468], [-73.93214, 40.71468], [-73.93175, 40.71474], [-73.93159, 40.7144], [-73.93156, 40.71439], [-73.93154, 40.71436], [-73.93148, 40.71422], [-73.93124, 40.71372], [-73.93145, 40.71344], [-73.93156, 40.7134], [-73.93159, 40.71338], [-73.93165, 40.71334], [-73.93197, 40.71325], [-73.93245, 40.71312], [-73.93255, 40.71309], [-73.93258, 40.71309], [-73.9326, 40.71308], [-73.93261, 40.71308], [-73.93262, 40.71307], [-73.93262, 40.71307], [-73.93263, 40.71306], [-73.93264, 40.71305], [-73.93264, 40.71304], [-73.93265, 40.71304], [-73.93265, 40.71303], [-73.93265, 40.71303], [-73.93265, 40.71302], [-73.93265, 40.713], [-73.93203, 40.71159], [-73.93338, 40.71123], [-73.93328, 40.71098], [-73.9319, 40.71134], [-73.93166, 40.71081], [-73.93151, 40.71047], [-73.93127, 40.70992], [-73.93103, 40.70936], [-73.93093, 40.70916], [-73.93079, 40.70911], [-73.93079, 40.70911], [-73.93079, 40.70911], [-73.93079, 40.70911], [-73.93078, 40.70911], [-73.93078, 40.7091], [-73.93078, 40.7091], [-73.93077, 40.70909], [-73.93077, 40.70908], [-73.93077, 40.70906], [-73.93077, 40.70902], [-73.93077, 40.709], [-73.93076, 40.70899], [-73.93076, 40.70898], [-73.93076, 40.70897], [-73.93074, 40.70895], [-73.93072, 40.70892], [-73.9307, 40.7089], [-73.93067, 40.70887], [-73.93064, 40.70885], [-73.93057, 40.70879], [-73.93054, 40.70877], [-73.93053, 40.70875], [-73.93053, 40.70875], [-73.93052, 40.70873], [-73.93051, 40.70871], [-73.9305, 40.70869], [-73.9305, 40.70868], [-73.93036, 40.70872], [-73.93037, 40.70874], [-73.93038, 40.70875], [-73.93038, 40.70876], [-73.93039, 40.70877], [-73.93039, 40.70878], [-73.93038, 40.70879], [-73.93038, 40.7088], [-73.93037, 40.70882], [-73.93036, 40.70883], [-73.93035, 40.70884], [-73.93029, 40.70889], [-73.93027, 40.7089], [-73.93027, 40.70891], [-73.93026, 40.70892], [-73.93025, 40.70893], [-73.93038, 40.70922], [-73.9306, 40.70975], [-73.93063, 40.70979], [-73.93064, 40.7098], [-73.93065, 40.70981], [-73.93071, 40.70985], [-73.93072, 40.70986], [-73.93072, 40.70987], [-73.93073, 40.70988], [-73.93073, 40.70989], [-73.93074, 40.70991], [-73.93074, 40.70994], [-73.93074, 40.71], [-73.93074, 40.71002], [-73.93075, 40.71003], [-73.93077, 40.7101], [-73.93079, 40.71015], [-73.93081, 40.71018], [-73.93085, 40.71025], [-73.93087, 40.71029], [-73.9309, 40.71036], [-73.93093, 40.71042], [-73.931, 40.7106], [-73.93103, 40.71069], [-73.93116, 40.711], [-73.93155, 40.71185], [-73.93089, 40.71206], [-73.93086, 40.71206], [-73.93084, 40.71207], [-73.93082, 40.71209], [-73.93081, 40.71209], [-73.9308, 40.7121], [-73.93079, 40.71212], [-73.93078, 40.71212], [-73.93078, 40.71213], [-73.93078, 40.71214], [-73.93078, 40.71215], [-73.93078, 40.71216], [-73.93078, 40.71216], [-73.93078, 40.71216], [-73.93079, 40.71218], [-73.9308, 40.71219], [-73.93081, 40.71221], [-73.93082, 40.71221], [-73.93083, 40.71221], [-73.93083, 40.71222], [-73.93085, 40.71222], [-73.93086, 40.71222], [-73.93086, 40.71222], [-73.93161, 40.71204], [-73.93182, 40.71248], [-73.93183, 40.71251], [-73.93184, 40.71253], [-73.93185, 40.71255], [-73.93185, 40.71256], [-73.93185, 40.71259], [-73.93184, 40.71263], [-73.93183, 40.71265], [-73.93182, 40.71268], [-73.93182, 40.71269], [-73.93181, 40.71269], [-73.93179, 40.71271], [-73.93177, 40.71272], [-73.93173, 40.71275], [-73.93067, 40.71302], [-73.93057, 40.71305], [-73.93055, 40.71306], [-73.93053, 40.71306], [-73.93052, 40.71306], [-73.93051, 40.71307], [-73.93051, 40.71307], [-73.9305, 40.71308], [-73.93049, 40.71309], [-73.93047, 40.71312], [-73.93046, 40.71313], [-73.93044, 40.71316], [-73.93043, 40.71316], [-73.93043, 40.71317], [-73.93042, 40.71317], [-73.93042, 40.71317], [-73.93042, 40.71319], [-73.93077, 40.71393], [-73.93095, 40.71436], [-73.93105, 40.71461], [-73.93085, 40.7149], [-73.92992, 40.71515], [-73.9299, 40.71512], [-73.92931, 40.71528], [-73.92927, 40.71531], [-73.92925, 40.71533], [-73.92844, 40.71553], [-73.9289, 40.71657], [-73.92891, 40.7166], [-73.92891, 40.71662], [-73.9289, 40.71664], [-73.9289, 40.71666], [-73.92888, 40.71668], [-73.92887, 40.7167], [-73.92885, 40.71672], [-73.92884, 40.71674], [-73.92879, 40.71679], [-73.92877, 40.71681], [-73.92875, 40.71682], [-73.92871, 40.71685], [-73.92868, 40.71687], [-73.92864, 40.71689], [-73.92861, 40.71691], [-73.92858, 40.71693], [-73.92849, 40.71697], [-73.92844, 40.717], [-73.92832, 40.71706], [-73.92827, 40.71709], [-73.92825, 40.7171], [-73.92823, 40.71711], [-73.92821, 40.71711], [-73.92819, 40.71712], [-73.92817, 40.71712], [-73.92814, 40.71713], [-73.92812, 40.71713], [-73.9281, 40.71713], [-73.92595, 40.71769], [-73.92594, 40.71767], [-73.92515, 40.71785], [-73.925, 40.71789], [-73.92497, 40.71789], [-73.92495, 40.7179], [-73.92494, 40.7179], [-73.92493, 40.7179], [-73.9249, 40.71791], [-73.92489, 40.71791], [-73.92486, 40.71792], [-73.92484, 40.71792], [-73.92482, 40.71792], [-73.92479, 40.71793], [-73.92477, 40.71794], [-73.92475, 40.71794], [-73.92473, 40.71794], [-73.92471, 40.71795], [-73.92469, 40.71795], [-73.92468, 40.71795], [-73.92466, 40.71795], [-73.92465, 40.71795], [-73.92463, 40.71795], [-73.9246, 40.71795], [-73.92459, 40.71795], [-73.92458, 40.71795], [-73.92457, 40.71794], [-73.92455, 40.71794], [-73.92454, 40.71793], [-73.92452, 40.71792], [-73.92451, 40.71792], [-73.92449, 40.71791], [-73.92448, 40.7179], [-73.92446, 40.71789], [-73.92445, 40.71788], [-73.92443, 40.71787], [-73.92441, 40.71786], [-73.92439, 40.71785], [-73.92437, 40.71784], [-73.92435, 40.71782], [-73.92433, 40.71781], [-73.92431, 40.7178], [-73.92429, 40.71779], [-73.92428, 40.71778], [-73.92426, 40.71777], [-73.92425, 40.71776], [-73.92423, 40.71775], [-73.92422, 40.71775], [-73.92421, 40.71774], [-73.92419, 40.71773], [-73.92418, 40.71772], [-73.92417, 40.71771], [-73.92415, 40.7177], [-73.92414, 40.71769], [-73.92412, 40.71768], [-73.9241, 40.71767], [-73.92408, 40.71765], [-73.92407, 40.71764], [-73.92405, 40.71762], [-73.92403, 40.71761], [-73.92401, 40.71759], [-73.924, 40.71758], [-73.92399, 40.71757], [-73.92398, 40.71756], [-73.92397, 40.71755], [-73.92395, 40.71753], [-73.92394, 40.71752], [-73.92393, 40.71751], [-73.9239, 40.71749], [-73.92389, 40.71749], [-73.92387, 40.71747], [-73.92385, 40.71746], [-73.92383, 40.71745], [-73.92381, 40.71744], [-73.92381, 40.71743], [-73.9238, 40.71742], [-73.92378, 40.71741], [-73.92377, 40.71741], [-73.92375, 40.71739], [-73.92373, 40.71738], [-73.92371, 40.71737], [-73.92369, 40.71735], [-73.92367, 40.71734], [-73.92366, 40.71733], [-73.92364, 40.71732], [-73.92363, 40.71731], [-73.92361, 40.7173], [-73.9236, 40.71728], [-73.92359, 40.71727], [-73.92358, 40.71726], [-73.92357, 40.71724], [-73.92356, 40.71723], [-73.92355, 40.71722], [-73.92354, 40.7172], [-73.92353, 40.71719], [-73.92352, 40.71718], [-73.92351, 40.71717], [-73.9235, 40.71715], [-73.92348, 40.71714], [-73.92347, 40.71713], [-73.92346, 40.71712], [-73.92345, 40.71711], [-73.92344, 40.71709], [-73.92343, 40.71708], [-73.92342, 40.71707], [-73.92341, 40.71706], [-73.92341, 40.71704], [-73.9234, 40.71703], [-73.92339, 40.71701], [-73.92339, 40.717], [-73.92338, 40.71699], [-73.92337, 40.71698], [-73.92337, 40.71697], [-73.92335, 40.71697], [-73.92329, 40.71683], [-73.92323, 40.7167], [-73.92317, 40.71648], [-73.92313, 40.71648], [-73.92312, 40.71648], [-73.92311, 40.71647], [-73.9231, 40.71645], [-73.92308, 40.71639], [-73.92305, 40.71634], [-73.92326, 40.71625], [-73.92331, 40.71623], [-73.92333, 40.71622], [-73.92337, 40.71622], [-73.92339, 40.71621], [-73.9234, 40.71619], [-73.92343, 40.71617], [-73.92347, 40.71615], [-73.92361, 40.7161], [-73.92359, 40.71603], [-73.92431, 40.71585], [-73.92459, 40.71553], [-73.92483, 40.71528], [-73.92489, 40.71527], [-73.92485, 40.7152], [-73.92479, 40.71507], [-73.92477, 40.71503], [-73.92476, 40.71502], [-73.92476, 40.715], [-73.92476, 40.71499], [-73.92476, 40.71498], [-73.92473, 40.71494], [-73.92469, 40.71488], [-73.92466, 40.71487], [-73.92461, 40.71483], [-73.92456, 40.71475], [-73.92453, 40.71469], [-73.92451, 40.71462], [-73.92448, 40.71452], [-73.92443, 40.71436], [-73.92442, 40.71435], [-73.92441, 40.71435], [-73.92441, 40.71435], [-73.92439, 40.71435], [-73.92437, 40.71433], [-73.92435, 40.71431], [-73.92434, 40.71425], [-73.92434, 40.7142], [-73.92434, 40.71414], [-73.92434, 40.71412], [-73.92406, 40.71411], [-73.92404, 40.71401], [-73.92314, 40.71339], [-73.92223, 40.71285], [-73.92169, 40.71189], [-73.92155, 40.71104], [-73.92122, 40.71079], [-73.92109, 40.71072], [-73.92075, 40.71053], [-73.92189, 40.7094], [-73.92248, 40.70933], [-73.92419, 40.70906], [-73.92576, 40.7088], [-73.92741, 40.70854], [-73.92903, 40.70828], [-73.93207, 40.70779], [-73.9323, 40.70775], [-73.93252, 40.70824], [-73.93269, 40.70863], [-73.933, 40.70932], [-73.9333, 40.70999], [-73.9336, 40.71067], [-73.93389, 40.71134], [-73.93426, 40.71212], [-73.93453, 40.71275], [-73.9348, 40.71337], [-73.93725, 40.71278], [-73.93832, 40.71252], [-73.93847, 40.71249], [-73.94069, 40.71196], [-73.94048, 40.71156], [-73.94042, 40.71122], [-73.94075, 40.71119], [-73.94117, 40.71115], [-73.94159, 40.71111], [-73.94197, 40.71107], [-73.94211, 40.71106], [-73.94246, 40.71103], [-73.94284, 40.71099], [-73.94327, 40.71095], [-73.94358, 40.71092], [-73.94379, 40.7109], [-73.94369, 40.71029], [-73.94368, 40.71022], [-73.94359, 40.70966], [-73.94357, 40.70958], [-73.94356, 40.7095], [-73.94354, 40.70942], [-73.94344, 40.70878], [-73.94332, 40.70807], [-73.9432, 40.70733], [-73.94309, 40.7066], [-73.94297, 40.70589], [-73.94285, 40.70518], [-73.94273, 40.70447], [-73.94221, 40.70452], [-73.94214, 40.70453], [-73.94177, 40.70456], [-73.94168, 40.70457], [-73.94103, 40.70464], [-73.94089, 40.70391], [-73.94078, 40.70322], [-73.94076, 40.70313], [-73.94068, 40.70259], [-73.94062, 40.70225], [-73.9406, 40.70214], [-73.94054, 40.7018], [-73.94042, 40.70108], [-73.94193, 40.70072], [-73.9422, 40.70089], [-73.94306, 40.70142], [-73.94323, 40.70152], [-73.94382, 40.70186], [-73.944, 40.70196], [-73.94431, 40.70213], [-73.94464, 40.70231], [-73.94545, 40.70276], [-73.94585, 40.70299], [-73.94625, 40.70321], [-73.94705, 40.70366], [-73.94785, 40.70411], [-73.94814, 40.70427], [-73.94855, 40.7045], [-73.94866, 40.70456], [-73.94925, 40.7049], [-73.94947, 40.70502], [-73.94984, 40.70523], [-73.95024, 40.70547], [-73.95029, 40.70591], [-73.95041, 40.70665], [-73.95053, 40.70739], [-73.95066, 40.70817], [-73.95076, 40.7088], [-73.95083, 40.70914], [-73.95087, 40.70951], [-73.94866, 40.70972], [-73.94877, 40.71043], [-73.94889, 40.71117], [-73.94901, 40.7119], [-73.94913, 40.71261], [-73.94925, 40.71332], [-73.94937, 40.71407], [-73.95162, 40.71407], [-73.95291, 40.71406], [-73.95303, 40.71406], [-73.95316, 40.71406], [-73.95325, 40.71407], [-73.95348, 40.71407], [-73.95335, 40.71418], [-73.95275, 40.71474], [-73.95211, 40.71526], [-73.95182, 40.71548], [-73.95114, 40.71603], [-73.95005, 40.7168], [-73.94984, 40.71694], [-73.94954, 40.71712], [-73.94904, 40.71743], [-73.94866, 40.71768], [-73.94832, 40.71786], [-73.94721, 40.71856], [-73.94679, 40.71882], [-73.9456, 40.71957], [-73.94441, 40.72024], [-73.94368, 40.72066], [-73.94282, 40.72114], [-73.94196, 40.72165], [-73.9415, 40.72199], [-73.94109, 40.72231], [-73.94022, 40.72289], [-73.93931, 40.72335], [-73.93891, 40.72358], [-73.93849, 40.72381], [-73.93765, 40.72426], [-73.93676, 40.72484], [-73.9354, 40.72591], [-73.93412, 40.72685], [-73.93255, 40.72786], [-73.93227, 40.72817], [-73.932, 40.72814], [-73.93196, 40.72812], [-73.93188, 40.72809], [-73.93175, 40.72805]]]}}, {"type": "Feature", "properties": {"zone_id": 87, "zone": "Financial District North", "borough": "Manhattan", "demand": 1900}, "geometry": {"type": "Polygon", "coordinates": [[[-74.00372, 40.70693], [-74.00361, 40.70678], [-74.00316, 40.70623], [-74.00307, 40.70614], [-74.00303, 40.70611], [-74.00299, 40.70608], [-74.00295, 40.70603], [-74.00257, 40.70552], [-74.00268, 40.70545], [-74.00236, 40.70516], [-74.00242, 40.70513], [-74.00238, 40.7051], [-74.00197, 40.70474], [-74.00197, 40.70473], [-74.00217, 40.70461], [-74.00219, 40.70461], [-74.00233, 40.70475], [-74.00233, 40.70474], [-74.00242, 40.70468], [-74.00243, 40.70468], [-74.00249, 40.70473], [-74.00249, 40.70473], [-74.0024, 40.70479], [-74.00239, 40.7048], [-74.00332, 40.70563], [-74.00358, 40.70546], [-74.00363, 40.70543], [-74.00361, 40.70541], [-74.00356, 40.70544], [-74.00288, 40.70483], [-74.00297, 40.70477], [-74.00358, 40.7053], [-74.00365, 40.70538], [-74.00362, 40.7054], [-74.00364, 40.70542], [-74.00383, 40.7053], [-74.00395, 40.7054], [-74.00438, 40.70511], [-74.00427, 40.70501], [-74.00459, 40.7048], [-74.00459, 40.70479], [-74.0035, 40.7038], [-74.00351, 40.70379], [-74.00372, 40.70365], [-74.00397, 40.70388], [-74.00481, 40.70464], [-74.00484, 40.70464], [-74.00492, 40.70459], [-74.00519, 40.70442], [-74.00511, 40.70435], [-74.00508, 40.70437], [-74.00493, 40.70421], [-74.005, 40.70416], [-74.00516, 40.70432], [-74.00514, 40.70433], [-74.00521, 40.70441], [-74.00526, 40.70437], [-74.00535, 40.70431], [-74.00418, 40.70325], [-74.00418, 40.70325], [-74.00416, 40.70323], [-74.00416, 40.70323], [-74.00421, 40.7032], [-74.00412, 40.70311], [-74.00427, 40.70302], [-74.0043, 40.70302], [-74.00433, 40.70304], [-74.00435, 40.70305], [-74.00437, 40.70307], [-74.00439, 40.70309], [-74.00442, 40.70312], [-74.00444, 40.70314], [-74.00448, 40.70318], [-74.00463, 40.7033], [-74.00463, 40.70331], [-74.00465, 40.70333], [-74.00467, 40.70335], [-74.00468, 40.70335], [-74.00475, 40.70342], [-74.0048, 40.70348], [-74.00484, 40.70351], [-74.00499, 40.70364], [-74.00503, 40.70367], [-74.0051, 40.70373], [-74.00521, 40.70382], [-74.00528, 40.70387], [-74.00535, 40.70392], [-74.00536, 40.70392], [-74.0054, 40.70394], [-74.00539, 40.70395], [-74.00559, 40.70408], [-74.0056, 40.70408], [-74.00564, 40.70411], [-74.00566, 40.7041], [-74.00589, 40.70396], [-74.00602, 40.70387], [-74.00614, 40.70398], [-74.00634, 40.70385], [-74.00643, 40.70379], [-74.0066, 40.70369], [-74.00635, 40.70349], [-74.00632, 40.70347], [-74.00591, 40.7031], [-74.00589, 40.70308], [-74.00548, 40.70271], [-74.00553, 40.70268], [-74.00551, 40.70267], [-74.00547, 40.70269], [-74.00544, 40.70266], [-74.00543, 40.70266], [-74.0053, 40.70256], [-74.00549, 40.70243], [-74.0055, 40.70243], [-74.00561, 40.70253], [-74.0056, 40.70254], [-74.00561, 40.70255], [-74.00559, 40.70257], [-74.0056, 40.70258], [-74.00559, 40.70259], [-74.00559, 40.7026], [-74.00558, 40.7026], [-74.00559, 40.70261], [-74.00554, 40.70265], [-74.00556, 40.70266], [-74.00568, 40.70258], [-74.00598, 40.70286], [-74.00624, 40.70308], [-74.00636, 40.70319], [-74.00649, 40.7033], [-74.00655, 40.70337], [-74.00656, 40.70336], [-74.00676, 40.70354], [-74.00678, 40.70357], [-74.00699, 40.70344], [-74.00722, 40.7033], [-74.00752, 40.70312], [-74.00753, 40.70311], [-74.0076, 40.70299], [-74.00764, 40.703], [-74.0078, 40.70306], [-74.00783, 40.70309], [-74.00785, 40.70311], [-74.00798, 40.70319], [-74.00854, 40.7037], [-74.00899, 40.70408], [-74.00908, 40.70417], [-74.00945, 40.70453], [-74.00975, 40.70477], [-74.00998, 40.70515], [-74.01, 40.70533], [-74.00987, 40.7058], [-74.01119, 40.70628], [-74.01187, 40.70655], [-74.0124, 40.70678], [-74.01251, 40.70677], [-74.01195, 40.70745], [-74.0117, 40.70776], [-74.01125, 40.7083], [-74.01118, 40.70839], [-74.01101, 40.70859], [-74.01085, 40.7088], [-74.01054, 40.70915], [-74.00999, 40.70981], [-74.00954, 40.71033], [-74.00947, 40.71041], [-74.00906, 40.71089], [-74.00774, 40.71022], [-74.00705, 40.70987], [-74.00644, 40.70956], [-74.00551, 40.70909], [-74.00526, 40.70892], [-74.00506, 40.70879], [-74.00479, 40.7084], [-74.00433, 40.70782], [-74.00406, 40.70744], [-74.00392, 40.70724], [-74.00372, 40.70693]]]}}, {"type": "Feature", "properties": {"zone_id": 125, "zone": "Hudson Sq", "borough": "Manhattan", "demand": 1053}, "geometry": {"type": "Polygon", "coordinates": [[[-74.00269, 40.72831], [-74.00215, 40.72803], [-74.00221, 40.72796], [-74.00251, 40.7276], [-74.00312, 40.72688], [-74.00373, 40.72625], [-74.00403, 40.72551], [-74.00427, 40.72491], [-74.00457, 40.72417], [-74.00479, 40.72362], [-74.00506, 40.72298], [-74.00536, 40.72218], [-74.00539, 40.72211], [-74.00539, 40.72204], [-74.00538, 40.72196], [-74.00535, 40.72189], [-74.00531, 40.72182], [-74.00591, 40.72225], [-74.0063, 40.72255], [-74.00763, 40.7235], [-74.00791, 40.7237], [-74.00808, 40.72383], [-74.0083, 40.72398], [-74.00857, 40.72417], [-74.00864, 40.72422], [-74.00932, 40.7247], [-74.01004, 40.72521], [-74.01081, 40.72579], [-74.01092, 40.72579], [-74.01102, 40.72579], [-74.01104, 40.72572], [-74.01118, 40.72517], [-74.01135, 40.72428], [-74.01144, 40.72428], [-74.01159, 40.7243], [-74.01196, 40.72433], [-74.01178, 40.72524], [-74.01165, 40.72587], [-74.01165, 40.72587], [-74.01196, 40.72598], [-74.01232, 40.72603], [-74.01412, 40.72622], [-74.01478, 40.72628], [-74.01516, 40.72632], [-74.0152, 40.72636], [-74.01519, 40.72645], [-74.01517, 40.72658], [-74.01514, 40.72671], [-74.01512, 40.72679], [-74.01431, 40.72671], [-74.01342, 40.72662], [-74.01234, 40.72652], [-74.01154, 40.72645], [-74.01138, 40.72823], [-74.011, 40.72819], [-74.01087, 40.72818], [-74.01077, 40.72817], [-74.01067, 40.72911], [-74.01054, 40.7291], [-74.00935, 40.72899], [-74.00859, 40.72891], [-74.00709, 40.72877], [-74.00531, 40.7286], [-74.00313, 40.72839], [-74.00282, 40.72836], [-74.00269, 40.72831]]]}}, {"type": "Feature", "properties": {"zone_id": 138, "zone": "LaGuardia Airport", "borough": "Queens", "demand": 1364}, "geometry": {"type": "MultiPolygon", "coordinates": [[[[-73.87125, 40.78604], [-73.86978, 40.78534], [-73.86923, 40.78597], [-73.86918, 40.78594], [-73.86969, 40.7853], [-73.86987, 40.78509], [-73.86944, 40.78364], [-73.86871, 40.78372], [-73.86871, 40.78373], [-73.8687, 40.78375], [-73.86869, 40.78376], [-73.86868, 40.78377], [-73.86866, 40.78378], [-73.86865, 40.78379], [-73.86863, 40.7838], [-73.86861, 40.7838], [-73.86859, 40.7838], [-73.86857, 40.7838], [-73.86855, 40.78379], [-73.86853, 40.78378], [-73.86851, 40.78377], [-73.8685, 40.78376], [-73.86849, 40.78375], [-73.86848, 40.78374], [-73.86848, 40.78372], [-73.86848, 40.78371], [-73.86848, 40.78369], [-73.86849, 40.78368], [-73.86849, 40.78366], [-73.86851, 40.78365], [-73.86852, 40.78364], [-73.86854, 40.78363], [-73.86856, 40.78362], [-73.86858, 40.78362], [-73.8686, 40.78362], [-73.86861, 40.78362], [-73.86863, 40.78362], [-73.86865, 40.78363], [-73.86867, 40.78364], [-73.86868, 40.78365], [-73.86869, 40.78366], [-73.8687, 40.78367], [-73.86871, 40.78368], [-73.86871, 40.7837], [-73.86942, 40.78359], [-73.87048, 40.78231], [-73.87146, 40.78213], [-73.87256, 40.78082], [-73.87239, 40.78074], [-73.87218, 40.78053], [-73.87119, 40.78], [-73.87019, 40.77955], [-73.87016, 40.7795], [-73.86826, 40.77851], [-73.86793, 40.77839], [-73.86633, 40.77764], [-73.86615, 40.77759], [-73.86576, 40.77736], [-73.86513, 40.77697], [-73.86471, 40.77673], [-73.86216, 40.77551], [-73.85921, 40.77409], [-73.85912, 40.77413], [-73.85901, 40.77413], [-73.85893, 40.77409], [-73.8589, 40.77401], [-73.85894, 40.77396], [-73.85863, 40.77381], [-73.8584, 40.77372], [-73.85796, 40.77349], [-73.85774, 40.77338], [-73.85723, 40.77318], [-73.8569, 40.77306], [-73.85674, 40.77298], [-73.85656, 40.7729], [-73.85594, 40.77264], [-73.85551, 40.77244], [-73.85505, 40.77219], [-73.85505, 40.77211], [-73.85505, 40.77204], [-73.85505, 40.77192], [-73.85507, 40.77187], [-73.85509, 40.77183], [-73.85512, 40.77181], [-73.85518, 40.77178], [-73.85566, 40.77115], [-73.85642, 40.77035], [-73.85644, 40.77033], [-73.85646, 40.77032], [-73.8565, 40.7703], [-73.85652, 40.77029], [-73.85655, 40.77029], [-73.85657, 40.77028], [-73.85662, 40.77028], [-73.85667, 40.77028], [-73.85669, 40.77029], [-73.85672, 40.77029], [-73.85674, 40.7703], [-73.85677, 40.77031], [-73.85723, 40.77053], [-73.85729, 40.77055], [-73.85731, 40.77056], [-73.85734, 40.77056], [-73.85736, 40.77057], [-73.85738, 40.77057], [-73.8574, 40.77057], [-73.85741, 40.77057], [-73.85743, 40.77056], [-73.85745, 40.77054], [-73.85746, 40.77053], [-73.85746, 40.77052], [-73.85747, 40.77051], [-73.85747, 40.77049], [-73.85748, 40.77044], [-73.85748, 40.77042], [-73.85749, 40.77041], [-73.8575, 40.77041], [-73.8575, 40.7704], [-73.85751, 40.7704], [-73.85753, 40.77039], [-73.85755, 40.77038], [-73.85757, 40.77038], [-73.8576, 40.77038], [-73.85762, 40.77038], [-73.85765, 40.77038], [-73.85776, 40.7704], [-73.85778, 40.7704], [-73.85784, 40.77043], [-73.85785, 40.77044], [-73.85786, 40.77044], [-73.85788, 40.77044], [-73.85789, 40.77044], [-73.8579, 40.77044], [-73.8579, 40.77044], [-73.85811, 40.77033], [-73.85812, 40.77034], [-73.85814, 40.77035], [-73.85815, 40.77035], [-73.85815, 40.77035], [-73.85816, 40.77035], [-73.85817, 40.77035], [-73.85818, 40.77035], [-73.85819, 40.77034], [-73.8582, 40.77034], [-73.85821, 40.77032], [-73.8582, 40.77031], [-73.85819, 40.77029], [-73.85799, 40.77017], [-73.85774, 40.77], [-73.85745, 40.76981], [-73.85692, 40.76951], [-73.85669, 40.76938], [-73.85621, 40.7692], [-73.85615, 40.76908], [-73.85615, 40.76899], [-73.85625, 40.76889], [-73.85631, 40.76888], [-73.85648, 40.7689], [-73.85664, 40.76894], [-73.85682, 40.76904], [-73.85705, 40.76914], [-73.8571, 40.76909], [-73.85716, 40.76899], [-73.85724, 40.76888], [-73.85731, 40.76876], [-73.85768, 40.76828], [-73.85798, 40.76811], [-73.85805, 40.76809], [-73.8582, 40.76794], [-73.85833, 40.76782], [-73.85844, 40.7677], [-73.8586, 40.76748], [-73.85877, 40.76735], [-73.85892, 40.76727], [-73.85938, 40.76707], [-73.85964, 40.76703], [-73.85983, 40.76703], [-73.85999, 40.76696], [-73.86017, 40.76694], [-73.86034, 40.76696], [-73.86055, 40.767], [-73.8607, 40.76701], [-73.86077, 40.76699], [-73.86086, 40.76693], [-73.86093, 40.76694], [-73.86099, 40.76701], [-73.86101, 40.76706], [-73.861, 40.76717], [-73.86103, 40.76726], [-73.8611, 40.76727], [-73.86119, 40.76721], [-73.86121, 40.76703], [-73.86131, 40.76694], [-73.86143, 40.76691], [-73.86169, 40.76692], [-73.86182, 40.76694], [-73.86202, 40.76691], [-73.86205, 40.76691], [-73.86213, 40.76691], [-73.86223, 40.76689], [-73.8622, 40.76684], [-73.86227, 40.7668], [-73.86243, 40.76689], [-73.8626, 40.76689], [-73.86269, 40.76688], [-73.86275, 40.76676], [-73.86272, 40.76667], [-73.86224, 40.76628], [-73.86216, 40.76619], [-73.86217, 40.76605], [-73.86201, 40.76589], [-73.86177, 40.76559], [-73.86154, 40.76534], [-73.86124, 40.76496], [-73.86043, 40.76387], [-73.86057, 40.76383], [-73.86094, 40.76373], [-73.8611, 40.76366], [-73.86181, 40.76454], [-73.86286, 40.76585], [-73.86322, 40.76625], [-73.8634, 40.76645], [-73.86353, 40.76658], [-73.86405, 40.76706], [-73.86458, 40.76757], [-73.86509, 40.76801], [-73.86551, 40.76835], [-73.86607, 40.7688], [-73.86728, 40.76965], [-73.8681, 40.77017], [-73.86889, 40.77065], [-73.86944, 40.77092], [-73.86963, 40.77101], [-73.87016, 40.77121], [-73.87071, 40.77139], [-73.87143, 40.77158], [-73.87174, 40.77162], [-73.87224, 40.77169], [-73.87273, 40.77174], [-73.87328, 40.77177], [-73.87381, 40.77177], [-73.87426, 40.77175], [-73.87476, 40.77172], [-73.87518, 40.77168], [-73.87602, 40.77155], [-73.87609, 40.77154], [-73.87615, 40.77152], [-73.87665, 40.77142], [-73.87705, 40.77132], [-73.87743, 40.7712], [-73.87781, 40.77107], [-73.87819, 40.77093], [-73.87855, 40.77077], [-73.87897, 40.77056], [-73.87961, 40.77023], [-73.8802, 40.7699], [-73.88056, 40.7697], [-73.88069, 40.76963], [-73.8816, 40.76913], [-73.88277, 40.76853], [-73.88357, 40.76818], [-73.88427, 40.76789], [-73.8844, 40.76784], [-73.88506, 40.7676], [-73.88565, 40.76741], [-73.88603, 40.76728], [-73.88668, 40.7671], [-73.88672, 40.76709], [-73.88713, 40.76698], [-73.88762, 40.76686], [-73.88771, 40.76684], [-73.88773, 40.76691], [-73.88782, 40.7672], [-73.88818, 40.76843], [-73.88819, 40.76851], [-73.88822, 40.76859], [-73.88827, 40.76867], [-73.88834, 40.76874], [-73.88842, 40.76881], [-73.88852, 40.76886], [-73.88862, 40.76889], [-73.88873, 40.76892], [-73.88874, 40.76899], [-73.88904, 40.77092], [-73.88942, 40.77305], [-73.88945, 40.77353], [-73.8878, 40.77371], [-73.88768, 40.77382], [-73.88581, 40.77402], [-73.88581, 40.77404], [-73.88582, 40.77408], [-73.88583, 40.77408], [-73.88583, 40.77411], [-73.88579, 40.77411], [-73.88579, 40.77411], [-73.88568, 40.77412], [-73.88568, 40.77412], [-73.88567, 40.77413], [-73.88569, 40.77427], [-73.8857, 40.77427], [-73.88571, 40.77432], [-73.88567, 40.77433], [-73.88567, 40.77432], [-73.88565, 40.77432], [-73.88567, 40.77443], [-73.88563, 40.77444], [-73.8856, 40.7743], [-73.88565, 40.7743], [-73.88565, 40.77431], [-73.88567, 40.7743], [-73.88566, 40.77427], [-73.88567, 40.77427], [-73.88564, 40.77413], [-73.88564, 40.77413], [-73.88563, 40.7741], [-73.88568, 40.77409], [-73.88568, 40.7741], [-73.88579, 40.77409], [-73.88579, 40.77408], [-73.88579, 40.77408], [-73.88579, 40.77404], [-73.88578, 40.77402], [-73.88432, 40.77418], [-73.88408, 40.7741], [-73.88392, 40.77413], [-73.88393, 40.77418], [-73.88411, 40.77417], [-73.88455, 40.77436], [-73.88466, 40.77448], [-73.88479, 40.77481], [-73.88484, 40.77495], [-73.88486, 40.7751], [-73.88484, 40.77522], [-73.88477, 40.77533], [-73.88468, 40.7754], [-73.8846, 40.77542], [-73.88455, 40.77543], [-73.88446, 40.77546], [-73.88442, 40.77546], [-73.88429, 40.77547], [-73.88429, 40.77548], [-73.88433, 40.77548], [-73.88436, 40.77549], [-73.88441, 40.77555], [-73.88476, 40.77725], [-73.88482, 40.77751], [-73.88493, 40.7779], [-73.88499, 40.77814], [-73.88503, 40.7783], [-73.88506, 40.7784], [-73.88511, 40.77847], [-73.8852, 40.77851], [-73.88524, 40.77856], [-73.88525, 40.77861], [-73.88522, 40.77866], [-73.88508, 40.77867], [-73.88505, 40.77877], [-73.88512, 40.77906], [-73.88508, 40.77935], [-73.88498, 40.77974], [-73.88493, 40.77994], [-73.88488, 40.77999], [-73.88478, 40.78004], [-73.88445, 40.78015], [-73.88385, 40.78026], [-73.88325, 40.78026], [-73.88324, 40.78032], [-73.8829, 40.78035], [-73.88288, 40.78024], [-73.88281, 40.78022], [-73.88274, 40.78022], [-73.88264, 40.78029], [-73.88232, 40.78036], [-73.88216, 40.78037], [-73.88212, 40.7804], [-73.88208, 40.78045], [-73.88203, 40.78048], [-73.88187, 40.7805], [-73.88168, 40.7805], [-73.88156, 40.78055], [-73.88139, 40.7806], [-73.88122, 40.78061], [-73.88096, 40.78058], [-73.88087, 40.78057], [-73.88075, 40.78057], [-73.88039, 40.78062], [-73.88019, 40.78063], [-73.88002, 40.78064], [-73.87991, 40.78064], [-73.87973, 40.78065], [-73.87961, 40.78069], [-73.87959, 40.7807], [-73.87959, 40.78078], [-73.8796, 40.78078], [-73.87961, 40.78085], [-73.87947, 40.78086], [-73.87947, 40.7807], [-73.87945, 40.7807], [-73.87936, 40.78066], [-73.8793, 40.78076], [-73.8792, 40.78077], [-73.87913, 40.78068], [-73.87892, 40.78067], [-73.87871, 40.78059], [-73.87905, 40.78173], [-73.87931, 40.78185], [-73.87886, 40.7824], [-73.87889, 40.78241], [-73.87888, 40.78242], [-73.87914, 40.78254], [-73.87916, 40.78252], [-73.87918, 40.78253], [-73.87916, 40.78255], [-73.87975, 40.78284], [-73.8797, 40.78288], [-73.87968, 40.78287], [-73.8797, 40.78284], [-73.87946, 40.78271], [-73.87942, 40.78276], [-73.87941, 40.78275], [-73.87943, 40.78271], [-73.87915, 40.78257], [-73.87908, 40.78265], [-73.87906, 40.78264], [-73.87912, 40.78256], [-73.87887, 40.78244], [-73.87886, 40.78244], [-73.87883, 40.78243], [-73.87834, 40.78303], [-73.87516, 40.78151], [-73.87485, 40.78168], [-73.87125, 40.78604]]], [[[-73.87287, 40.78597], [-73.87283, 40.78595], [-73.87282, 40.78596], [-73.87277, 40.78594], [-73.87281, 40.7859], [-73.87285, 40.78593], [-73.87284, 40.78594], [-73.87288, 40.78596], [-73.87287, 40.78597]]], [[[-73.89009, 40.77363], [-73.89034, 40.77324], [-73.89183, 40.77488], [-73.89173, 40.77505], [-73.89172, 40.77516], [-73.89169, 40.77525], [-73.89153, 40.77548], [-73.89144, 40.77562], [-73.89136, 40.77605], [-73.89137, 40.77634], [-73.89145, 40.77651], [-73.89126, 40.77686], [-73.8911, 40.77702], [-73.89112, 40.77712], [-73.89107, 40.77721], [-73.89095, 40.77728], [-73.89073, 40.77733], [-73.89056, 40.7774], [-73.8905, 40.77746], [-73.89046, 40.77755], [-73.89047, 40.7777], [-73.89035, 40.7778], [-73.89017, 40.77785], [-73.89009, 40.77778], [-73.89002, 40.77725], [-73.88952, 40.77594], [-73.88947, 40.77574], [-73.88947, 40.77553], [-73.88955, 40.77528], [-73.88956, 40.77509], [-73.88958, 40.77503], [-73.88959, 40.77496], [-73.88961, 40.77484], [-73.88979, 40.77424], [-73.88984, 40.7741], [-73.88989, 40.77402], [-73.89007, 40.77396], [-73.89019, 40.77365], [-73.89009, 40.77363]]]]}}, {"type": "Feature", "properties": {"zone_id": 143, "zone": "Lincoln Square West", "borough": "Manhattan", "demand": 1794}, "geometry": {"type": "Polygon", "coordinates": [[[-73.98163, 40.78033], [-73.98152, 40.78028], [-73.98141, 40.78023], [-73.98067, 40.77992], [-73.98113, 40.77929], [-73.98162, 40.77861], [-73.98212, 40.77801], [-73.98216, 40.77797], [-73.98258, 40.7773], [-73.98305, 40.77668], [-73.9835, 40.77605], [-73.98397, 40.77543], [-73.98441, 40.77481], [-73.98488, 40.77416], [-73.98533, 40.77353], [-73.98547, 40.77334], [-73.98552, 40.77328], [-73.98557, 40.77321], [-73.98562, 40.77314], [-73.98576, 40.77295], [-73.98578, 40.77292], [-73.98582, 40.77286], [-73.98596, 40.77267], [-73.98602, 40.77259], [-73.98613, 40.77244], [-73.98618, 40.77237], [-73.98624, 40.7723], [-73.98645, 40.772], [-73.98649, 40.77195], [-73.98665, 40.77172], [-73.9867, 40.77167], [-73.98715, 40.77105], [-73.98761, 40.77041], [-73.98806, 40.76979], [-73.9906, 40.77085], [-73.99091, 40.77099], [-73.99366, 40.77215], [-73.99378, 40.7722], [-73.99387, 40.77224], [-73.9935, 40.77275], [-73.99359, 40.77279], [-73.99373, 40.77286], [-73.99379, 40.7729], [-73.99383, 40.77293], [-73.99389, 40.77296], [-73.99389, 40.77295], [-73.99396, 40.77294], [-73.99401, 40.77288], [-73.99412, 40.77292], [-73.99414, 40.7729], [-73.9943, 40.77297], [-73.99428, 40.77299], [-73.99438, 40.77304], [-73.99432, 40.77312], [-73.99429, 40.77316], [-73.99502, 40.77348], [-73.99507, 40.77341], [-73.99509, 40.77339], [-73.99501, 40.77336], [-73.99505, 40.7733], [-73.99624, 40.77379], [-73.9962, 40.77385], [-73.99611, 40.77382], [-73.99611, 40.77382], [-73.99606, 40.77389], [-73.99613, 40.77391], [-73.99613, 40.77391], [-73.99613, 40.77392], [-73.9961, 40.77395], [-73.99612, 40.77396], [-73.99618, 40.77399], [-73.99609, 40.77409], [-73.99605, 40.77407], [-73.99557, 40.77387], [-73.99394, 40.77318], [-73.99386, 40.77327], [-73.99382, 40.77338], [-73.99377, 40.77348], [-73.9937, 40.77356], [-73.99362, 40.77363], [-73.99353, 40.77371], [-73.99344, 40.77377], [-73.99341, 40.7738], [-73.99336, 40.77393], [-73.99262, 40.77497], [-73.99258, 40.77496], [-73.99253, 40.775], [-73.99247, 40.77502], [-73.9924, 40.77502], [-73.99227, 40.77512], [-73.99206, 40.7755], [-73.99213, 40.77551], [-73.99223, 40.77548], [-73.99233, 40.77547], [-73.99236, 40.7755], [-73.99239, 40.77556], [-73.99209, 40.77598], [-73.99202, 40.77607], [-73.99143, 40.77688], [-73.99093, 40.77757], [-73.99073, 40.77756], [-73.9904, 40.77758], [-73.9901, 40.778], [-73.98965, 40.77863], [-73.9892, 40.77925], [-73.9892, 40.77925], [-73.98918, 40.77929], [-73.98908, 40.77941], [-73.98887, 40.77969], [-73.98887, 40.77971], [-73.98922, 40.7797], [-73.98928, 40.77972], [-73.98941, 40.77974], [-73.9895, 40.77972], [-73.9896, 40.7797], [-73.98968, 40.77968], [-73.98975, 40.77967], [-73.98984, 40.77968], [-73.98994, 40.7797], [-73.99004, 40.77971], [-73.99014, 40.7797], [-73.99022, 40.77968], [-73.99034, 40.77966], [-73.99043, 40.77966], [-73.99051, 40.77967], [-73.99062, 40.77968], [-73.99074, 40.77967], [-73.99087, 40.77965], [-73.99096, 40.77964], [-73.99106, 40.77965], [-73.99116, 40.77967], [-73.99124, 40.77967], [-73.99126, 40.77965], [-73.99129, 40.77963], [-73.99132, 40.77963], [-73.99136, 40.77959], [-73.99155, 40.77957], [-73.99142, 40.77975], [-73.98889, 40.77988], [-73.98894, 40.77996], [-73.98893, 40.78006], [-73.98891, 40.7801], [-73.98891, 40.78012], [-73.98892, 40.78023], [-73.98838, 40.78098], [-73.98823, 40.78123], [-73.98821, 40.78122], [-73.98814, 40.78137], [-73.98814, 40.78138], [-73.98813, 40.7814], [-73.98799, 40.78134], [-73.98746, 40.78111], [-73.98746, 40.78111], [-73.98741, 40.78109], [-73.98736, 40.78106], [-73.98731, 40.78104], [-73.98707, 40.78091], [-73.98654, 40.78066], [-73.98568, 40.78031], [-73.98537, 40.78108], [-73.98507, 40.78178], [-73.98351, 40.78112], [-73.98233, 40.78062], [-73.98163, 40.78033]]]}}, {"type": "Feature", "properties": {"zone_id": 151, "zone": "Manhattan Valley", "borough": "Manhattan", "demand": 1980}, "geometry": {"type": "Polygon", "coordinates": [[[-73.96371, 40.79301], [-73.96418, 40.79236], [-73.96526, 40.7928], [-73.96701, 40.79356], [-73.96987, 40.79473], [-73.96942, 40.79536], [-73.97073, 40.79592], [-73.97083, 40.79596], [-73.97093, 40.796], [-73.97226, 40.79656], [-73.97365, 40.79715], [-73.97413, 40.79734], [-73.97507, 40.79771], [-73.97521, 40.79777], [-73.9754, 40.79785], [-73.97549, 40.79789], [-73.97563, 40.79795], [-73.97583, 40.79802], [-73.97636, 40.79825], [-73.9764, 40.79827], [-73.97629, 40.79843], [-73.97583, 40.79909], [-73.97578, 40.79916], [-73.97579, 40.79921], [-73.97576, 40.79926], [-73.97554, 40.79953], [-73.97527, 40.79993], [-73.97509, 40.80019], [-73.97496, 40.80037], [-73.97484, 40.80056], [-73.97467, 40.80081], [-73.97449, 40.80106], [-73.97414, 40.80152], [-73.97394, 40.80181], [-73.9739, 40.80189], [-73.97377, 40.80205], [-73.97372, 40.80217], [-73.97361, 40.8023], [-73.97354, 40.80236], [-73.97337, 40.80263], [-73.9732, 40.80283], [-73.97313, 40.80297], [-73.97307, 40.80306], [-73.97303, 40.80307], [-73.97292, 40.80325], [-73.97287, 40.80332], [-73.97287, 40.80336], [-73.9728, 40.80333], [-73.97266, 40.80328], [-73.97258, 40.80325], [-73.9725, 40.80322], [-73.9715, 40.80284], [-73.97033, 40.80238], [-73.97027, 40.80236], [-73.97022, 40.80234], [-73.97005, 40.80226], [-73.96858, 40.80163], [-73.96798, 40.8014], [-73.96787, 40.80135], [-73.96776, 40.8013], [-73.96571, 40.80044], [-73.96287, 40.79924], [-73.96148, 40.79865], [-73.96004, 40.79804], [-73.96052, 40.79737], [-73.96098, 40.79674], [-73.96144, 40.79611], [-73.9619, 40.79548], [-73.96236, 40.79485], [-73.96281, 40.79424], [-73.96371, 40.79301]]]}}, {"type": "Feature", "properties": {"zone_id": 166, "zone": "Morningside Heights", "borough": "Manhattan", "demand": 1137}, "geometry": {"type": "Polygon", "coordinates": [[[-73.95708, 40.8143], [-73.95627, 40.81337], [-73.95571, 40.81414], [-73.9552, 40.81355], [-73.95408, 40.81228], [-73.95354, 40.81205], [-73.9521, 40.81144], [-73.95259, 40.81076], [-73.95308, 40.81009], [-73.95328, 40.80988], [-73.95358, 40.80948], [-73.95497, 40.81006], [-73.95543, 40.80943], [-73.95588, 40.8088], [-73.95634, 40.80817], [-73.95681, 40.80755], [-73.95727, 40.80692], [-73.95772, 40.80629], [-73.95818, 40.8056], [-73.95825, 40.80471], [-73.9582, 40.80389], [-73.95825, 40.80311], [-73.95869, 40.80247], [-73.95915, 40.80184], [-73.95965, 40.80116], [-73.96108, 40.8018], [-73.96386, 40.80297], [-73.9666, 40.80412], [-73.9667, 40.80417], [-73.9668, 40.80421], [-73.96805, 40.80468], [-73.96849, 40.80483], [-73.96856, 40.80485], [-73.96861, 40.80487], [-73.96979, 40.8053], [-73.97069, 40.80563], [-73.97076, 40.80566], [-73.97084, 40.80568], [-73.97111, 40.80579], [-73.97046, 40.80663], [-73.97021, 40.80694], [-73.96988, 40.80736], [-73.96977, 40.80752], [-73.96956, 40.8078], [-73.96911, 40.80841], [-73.96909, 40.80843], [-73.96892, 40.80863], [-73.96885, 40.80875], [-73.96866, 40.80896], [-73.96856, 40.80907], [-73.96854, 40.80914], [-73.96846, 40.80932], [-73.96842, 40.80939], [-73.96824, 40.80966], [-73.96815, 40.80977], [-73.96812, 40.80981], [-73.96813, 40.80984], [-73.96796, 40.8101], [-73.96788, 40.8102], [-73.96788, 40.81024], [-73.96779, 40.81037], [-73.96772, 40.81043], [-73.9677, 40.81049], [-73.96767, 40.81055], [-73.96762, 40.81058], [-73.96762, 40.81063], [-73.96754, 40.81077], [-73.9674, 40.81102], [-73.96713, 40.81139], [-73.96704, 40.81152], [-73.967, 40.81155], [-73.96692, 40.81169], [-73.96688, 40.81177], [-73.96675, 40.81198], [-73.96663, 40.81215], [-73.96653, 40.81228], [-73.96639, 40.81247], [-73.96628, 40.81264], [-73.96616, 40.81282], [-73.96611, 40.81286], [-73.96588, 40.8132], [-73.96579, 40.81333], [-73.96566, 40.8135], [-73.96549, 40.81375], [-73.96549, 40.81375], [-73.96535, 40.81394], [-73.96511, 40.81427], [-73.96509, 40.81432], [-73.96432, 40.81551], [-73.96414, 40.81577], [-73.9634, 40.81668], [-73.96313, 40.81695], [-73.96309, 40.81701], [-73.96272, 40.81737], [-73.96203, 40.81809], [-73.9619, 40.81805], [-73.96182, 40.81802], [-73.96169, 40.81797], [-73.96164, 40.81794], [-73.96158, 40.81791], [-73.96139, 40.81782], [-73.96102, 40.81765], [-73.96069, 40.81751], [-73.95949, 40.81701], [-73.95839, 40.8158], [-73.95829, 40.81569], [-73.9582, 40.81558], [-73.95783, 40.81516], [-73.95717, 40.8144], [-73.95711, 40.81433], [-73.95708, 40.8143]]]}}, {"type": "Feature", "properties": {"zone_id": 211, "zone": "SoHo", "borough": "Manhattan", "demand": 1677}, "geometry": {"type": "Polygon", "coordinates": [[[-74.00152, 40.71982], [-74.00188, 40.7194], [-74.0026, 40.7199], [-74.00326, 40.72038], [-74.00351, 40.72056], [-74.00393, 40.72085], [-74.00463, 40.72135], [-74.00523, 40.72174], [-74.00531, 40.72182], [-74.00535, 40.72189], [-74.00538, 40.72196], [-74.00539, 40.72204], [-74.00539, 40.72211], [-74.00536, 40.72218], [-74.00506, 40.72298], [-74.00479, 40.72362], [-74.00457, 40.72417], [-74.00427, 40.72491], [-74.00403, 40.72551], [-74.00373, 40.72625], [-74.00312, 40.72688], [-74.00251, 40.7276], [-74.00221, 40.72796], [-74.00215, 40.72803], [-74.00139, 40.72766], [-74.00063, 40.72729], [-73.99992, 40.72693], [-73.99912, 40.72654], [-73.99836, 40.72617], [-73.99761, 40.7258], [-73.99677, 40.72543], [-73.99684, 40.72535], [-73.99778, 40.72423], [-73.99881, 40.72302], [-73.99952, 40.72218], [-73.99985, 40.72179], [-74.00066, 40.72084], [-74.00142, 40.71994], [-74.00152, 40.71982]]]}}, {"type": "Feature", "properties": {"zone_id": 232, "zone": "Two Bridges/Seward Park", "borough": "Manhattan", "demand": 1174}, "geometry": {"type": "Polygon", "coordinates": [[[-73.97636, 40.71913], [-73.97551, 40.71896], [-73.97545, 40.71895], [-73.9751, 40.71888], [-73.97498, 40.71887], [-73.97491, 40.71886], [-73.97486, 40.71885], [-73.97474, 40.71884], [-73.97469, 40.71884], [-73.97465, 40.71884], [-73.97348, 40.71886], [-73.97354, 40.71866], [-73.97359, 40.71852], [-73.97365, 40.71836], [-73.97372, 40.71816], [-73.9738, 40.71794], [-73.97391, 40.71764], [-73.97399, 40.71741], [-73.97408, 40.71715], [-73.97418, 40.71692], [-73.97422, 40.71679], [-73.97425, 40.7167], [-73.97445, 40.71615], [-73.9745, 40.71604], [-73.97464, 40.71571], [-73.97473, 40.71548], [-73.97482, 40.71529], [-73.97492, 40.71507], [-73.975, 40.71487], [-73.97513, 40.71461], [-73.97516, 40.71456], [-73.97517, 40.71453], [-73.97519, 40.7145], [-73.97521, 40.71445], [-73.97524, 40.71439], [-73.97524, 40.71439], [-73.9758, 40.71318], [-73.97579, 40.71317], [-73.97597, 40.71279], [-73.97605, 40.7126], [-73.97612, 40.71246], [-73.97617, 40.71242], [-73.97631, 40.71212], [-73.97643, 40.71191], [-73.97651, 40.7118], [-73.97655, 40.71173], [-73.97671, 40.71154], [-73.97682, 40.71142], [-73.97699, 40.71126], [-73.97706, 40.7112], [-73.97722, 40.71107], [-73.97753, 40.71084], [-73.97772, 40.71071], [-73.97782, 40.71064], [-73.9779, 40.7106], [-73.978, 40.71056], [-73.97808, 40.71053], [-73.97818, 40.71051], [-73.97826, 40.7105], [-73.97837, 40.71049], [-73.97862, 40.71047], [-73.97878, 40.71046], [-73.97919, 40.71043], [-73.97921, 40.71043], [-73.97929, 40.71043], [-73.98004, 40.71038], [-73.98028, 40.71036], [-73.9803, 40.71034], [-73.98031, 40.71033], [-73.98033, 40.71032], [-73.98033, 40.71029], [-73.98051, 40.71027], [-73.98128, 40.71022], [-73.98124, 40.70982], [-73.98306, 40.70965], [-73.98364, 40.70959], [-73.9845, 40.70951], [-73.98655, 40.70931], [-73.98816, 40.70916], [-73.98817, 40.70915], [-73.98839, 40.70913], [-73.98845, 40.70913], [-73.98848, 40.70916], [-73.9885, 40.70918], [-73.98864, 40.70991], [-73.98865, 40.70992], [-73.98867, 40.70992], [-73.9887, 40.70993], [-73.98872, 40.70995], [-73.98874, 40.70997], [-73.9888, 40.70997], [-73.9889, 40.70995], [-73.98936, 40.7099], [-73.98946, 40.70989], [-73.98957, 40.70987], [-73.98974, 40.70985], [-73.99016, 40.70979], [-73.99051, 40.70973], [-73.99079, 40.70969], [-73.99107, 40.70966], [-73.99135, 40.70962], [-73.9917, 40.70956], [-73.99177, 40.70955], [-73.99191, 40.70953], [-73.99192, 40.70955], [-73.99194, 40.70959], [-73.99197, 40.70965], [-73.99201, 40.7097], [-73.99205, 40.70978], [-73.99191, 40.7098], [-73.99184, 40.70981], [-73.99178, 40.70982], [-73.99192, 40.7106], [-73.99198, 40.71091], [-73.992, 40.71102], [-73.99202, 40.7111], [-73.99214, 40.71158], [-73.99215, 40.71166], [-73.99217, 40.71171], [-73.99218, 40.71177], [-73.99221, 40.71196], [-73.99222, 40.71207], [-73.99224, 40.71227], [-73.99225, 40.71235], [-73.99227, 40.71247], [-73.99239, 40.71319], [-73.99246, 40.71376], [-73.99247, 40.71386], [-73.99256, 40.71439], [-73.99213, 40.71442], [-73.99123, 40.71449], [-73.99075, 40.71455], [-73.99022, 40.7144], [-73.99023, 40.71449], [-73.99022, 40.71458], [-73.9902, 40.71466], [-73.98975, 40.71555], [-73.98915, 40.71671], [-73.98837, 40.71645], [-73.98795, 40.71727], [-73.98792, 40.71734], [-73.98788, 40.71741], [-73.98751, 40.71807], [-73.98743, 40.71821], [-73.98739, 40.7183], [-73.98736, 40.71837], [-73.98675, 40.71959], [-73.98591, 40.71934], [-73.98507, 40.71908], [-73.98448, 40.72023], [-73.98386, 40.7214], [-73.98382, 40.72147], [-73.983, 40.72122], [-73.98217, 40.72097], [-73.98131, 40.72071], [-73.97966, 40.72021], [-73.97875, 40.71993], [-73.97803, 40.71964], [-73.97722, 40.71931], [-73.97674, 40.71921], [-73.97648, 40.71916], [-73.97636, 40.71913]]]}}, {"type": "Feature", "properties": {"zone_id": 255, "zone": "Williamsburg (North Side)", "borough": "Brooklyn", "demand": 951}, "geometry": {"type": "Polygon", "coordinates": [[[-73.96176, 40.72523], [-73.96154, 40.72511], [-73.96141, 40.72518], [-73.96116, 40.72526], [-73.96043, 40.72511], [-73.96037, 40.72505], [-73.95876, 40.72454], [-73.95833, 40.72441], [-73.95814, 40.7244], [-73.95772, 40.72428], [-73.95627, 40.72339], [-73.95478, 40.72246], [-73.95418, 40.72264], [-73.95382, 40.72276], [-73.95332, 40.72293], [-73.9525, 40.72322], [-73.95165, 40.72349], [-73.95065, 40.72171], [-73.94987, 40.72218], [-73.94908, 40.72254], [-73.94887, 40.72129], [-73.94853, 40.71917], [-73.94842, 40.71845], [-73.94721, 40.71856], [-73.94832, 40.71786], [-73.94866, 40.71768], [-73.94904, 40.71743], [-73.94954, 40.71712], [-73.94984, 40.71694], [-73.95005, 40.7168], [-73.95114, 40.71603], [-73.95182, 40.71548], [-73.95211, 40.71526], [-73.95275, 40.71474], [-73.95335, 40.71418], [-73.95348, 40.71407], [-73.95434, 40.71407], [-73.95504, 40.71291], [-73.95548, 40.71226], [-73.95681, 40.71276], [-73.95834, 40.71331], [-73.9598, 40.71389], [-73.96129, 40.7145], [-73.96278, 40.71511], [-73.96447, 40.71573], [-73.9661, 40.71621], [-73.96664, 40.71636], [-73.96736, 40.71648], [-73.96729, 40.71652], [-73.96724, 40.71658], [-73.96726, 40.71667], [-73.96711, 40.7169], [-73.96715, 40.71692], [-73.96727, 40.71699], [-73.96677, 40.7177], [-73.9666, 40.71797], [-73.96717, 40.71828], [-73.96718, 40.71826], [-73.9673, 40.71831], [-73.96722, 40.71842], [-73.96717, 40.71848], [-73.96706, 40.71844], [-73.96708, 40.71841], [-73.96714, 40.71832], [-73.96656, 40.71802], [-73.96655, 40.71804], [-73.96654, 40.71803], [-73.96653, 40.71803], [-73.96651, 40.71805], [-73.96632, 40.71832], [-73.96622, 40.71827], [-73.96621, 40.71826], [-73.96615, 40.71831], [-73.96604, 40.71841], [-73.96608, 40.71843], [-73.9661, 40.71845], [-73.96612, 40.7185], [-73.96588, 40.71875], [-73.96634, 40.71902], [-73.96637, 40.71899], [-73.96663, 40.71913], [-73.96654, 40.71922], [-73.96632, 40.71911], [-73.96636, 40.71906], [-73.96586, 40.71877], [-73.96571, 40.71891], [-73.9657, 40.71892], [-73.96563, 40.71893], [-73.96553, 40.7189], [-73.96515, 40.71927], [-73.96528, 40.71936], [-73.96529, 40.71936], [-73.9654, 40.71956], [-73.96555, 40.71966], [-73.96539, 40.71995], [-73.96537, 40.72009], [-73.96514, 40.72034], [-73.96501, 40.72029], [-73.96491, 40.72033], [-73.96456, 40.72012], [-73.96446, 40.72006], [-73.96438, 40.72014], [-73.96436, 40.72016], [-73.96447, 40.72022], [-73.96448, 40.72023], [-73.9644, 40.7203], [-73.96468, 40.72047], [-73.96459, 40.72054], [-73.96435, 40.7204], [-73.96432, 40.72047], [-73.9643, 40.72054], [-73.96425, 40.7206], [-73.9642, 40.72065], [-73.96415, 40.72071], [-73.96409, 40.72075], [-73.96505, 40.72136], [-73.96489, 40.72147], [-73.964, 40.72094], [-73.9636, 40.72154], [-73.96358, 40.72157], [-73.96348, 40.72156], [-73.96348, 40.72156], [-73.96345, 40.72158], [-73.96298, 40.72203], [-73.96276, 40.7224], [-73.96225, 40.72353], [-73.96223, 40.72357], [-73.96207, 40.72388], [-73.96201, 40.72399], [-73.9619, 40.7241], [-73.96189, 40.72411], [-73.96166, 40.72486], [-73.96211, 40.72515], [-73.9619, 40.72532], [-73.96176, 40.72523]]]}}, {"type": "Feature", "properties": {"zone_id": 256, "zone": "Williamsburg (South Side)", "borough": "Brooklyn", "demand": 949}, "geometry": {"type": "Polygon", "coordinates": [[[-73.95834, 40.71331], [-73.95681, 40.71276], [-73.95548, 40.71226], [-73.95504, 40.71291], [-73.95434, 40.71407], [-73.95348, 40.71407], [-73.95325, 40.71407], [-73.95316, 40.71406], [-73.95303, 40.71406], [-73.95291, 40.71406], [-73.95162, 40.71407], [-73.94937, 40.71407], [-73.94925, 40.71332], [-73.94913, 40.71261], [-73.94901, 40.7119], [-73.94889, 40.71117], [-73.94877, 40.71043], [-73.94866, 40.70972], [-73.95087, 40.70951], [-73.95083, 40.70914], [-73.95076, 40.7088], [-73.95066, 40.70817], [-73.95053, 40.70739], [-73.95041, 40.70665], [-73.95029, 40.70591], [-73.95024, 40.70547], [-73.95096, 40.70584], [-73.95109, 40.70591], [-73.95191, 40.70636], [-73.9523, 40.70649], [-73.95251, 40.70656], [-73.95291, 40.7067], [-73.95375, 40.70698], [-73.95402, 40.70708], [-73.95554, 40.70759], [-73.95627, 40.70785], [-73.95672, 40.70801], [-73.9572, 40.70818], [-73.95728, 40.70821], [-73.95736, 40.70823], [-73.9579, 40.70843], [-73.95815, 40.70804], [-73.95838, 40.70768], [-73.95846, 40.70725], [-73.9592, 40.70733], [-73.9594, 40.70735], [-73.95994, 40.70741], [-73.9604, 40.70745], [-73.9605, 40.70746], [-73.96114, 40.70752], [-73.96186, 40.70759], [-73.96213, 40.70762], [-73.96274, 40.70768], [-73.96328, 40.70773], [-73.96442, 40.70753], [-73.96485, 40.70745], [-73.96593, 40.70724], [-73.96729, 40.707], [-73.96839, 40.70683], [-73.96929, 40.70709], [-73.96962, 40.70763], [-73.96985, 40.708], [-73.96994, 40.70931], [-73.96961, 40.71016], [-73.96956, 40.7103], [-73.96965, 40.71037], [-73.96983, 40.71039], [-73.96994, 40.7104], [-73.97001, 40.71045], [-73.96997, 40.71051], [-73.96988, 40.71051], [-73.96982, 40.71051], [-73.96973, 40.71051], [-73.96963, 40.71066], [-73.96971, 40.71069], [-73.96979, 40.71074], [-73.96975, 40.71083], [-73.96973, 40.71084], [-73.96935, 40.71096], [-73.96936, 40.711], [-73.96956, 40.7111], [-73.96958, 40.71111], [-73.96969, 40.71114], [-73.96976, 40.71117], [-73.9697, 40.71124], [-73.96956, 40.7112], [-73.96951, 40.71118], [-73.96945, 40.71116], [-73.96934, 40.71111], [-73.96926, 40.71116], [-73.96924, 40.71125], [-73.96939, 40.71135], [-73.96945, 40.71139], [-73.96943, 40.71147], [-73.9693, 40.71151], [-73.96929, 40.71151], [-73.96919, 40.71147], [-73.96912, 40.71151], [-73.96894, 40.71202], [-73.96887, 40.71223], [-73.96881, 40.71226], [-73.96887, 40.71227], [-73.96883, 40.71239], [-73.96892, 40.71242], [-73.96894, 40.71243], [-73.96892, 40.71248], [-73.9689, 40.71252], [-73.96887, 40.71258], [-73.96885, 40.71261], [-73.96883, 40.71264], [-73.96882, 40.71268], [-73.9688, 40.71274], [-73.96874, 40.71272], [-73.96873, 40.71272], [-73.96872, 40.71273], [-73.96867, 40.71285], [-73.96855, 40.71282], [-73.9685, 40.7128], [-73.96847, 40.71282], [-73.96847, 40.71285], [-73.96845, 40.71292], [-73.96847, 40.71293], [-73.96857, 40.71295], [-73.9685, 40.7131], [-73.96884, 40.71322], [-73.96839, 40.71426], [-73.96801, 40.71512], [-73.96765, 40.71587], [-73.96736, 40.71648], [-73.96664, 40.71636], [-73.9661, 40.71621], [-73.96447, 40.71573], [-73.96278, 40.71511], [-73.96129, 40.7145], [-73.9598, 40.71389], [-73.95834, 40.71331]]]}}, {"type": "Feature", "properties": {"zone_id": 261, "zone": "World Trade Center", "borough": "Manhattan", "demand": 988}, "geometry": {"type": "Polygon", "coordinates": [[[-74.01333, 40.70503], [-74.01327, 40.70455], [-74.01419, 40.70457], [-74.01429, 40.70455], [-74.01437, 40.70456], [-74.01452, 40.70461], [-74.01467, 40.70465], [-74.01478, 40.70467], [-74.0149, 40.7047], [-74.01496, 40.70476], [-74.01516, 40.7048], [-74.01527, 40.70483], [-74.0154, 40.7048], [-74.01566, 40.70483], [-74.01566, 40.70488], [-74.01587, 40.70488], [-74.01622, 40.70485], [-74.0163, 40.70485], [-74.01638, 40.70484], [-74.01652, 40.7048], [-74.01663, 40.7048], [-74.01669, 40.7048], [-74.01665, 40.70496], [-74.01662, 40.70509], [-74.0164, 40.70567], [-74.01625, 40.70607], [-74.01606, 40.7067], [-74.01594, 40.70701], [-74.0159, 40.70709], [-74.01589, 40.70714], [-74.01586, 40.7072], [-74.01585, 40.70725], [-74.01572, 40.70758], [-74.01569, 40.70766], [-74.01564, 40.70776], [-74.01559, 40.70788], [-74.01534, 40.7085], [-74.01495, 40.70943], [-74.01487, 40.70968], [-74.01482, 40.70982], [-74.01466, 40.71043], [-74.01446, 40.71091], [-74.01427, 40.71147], [-74.01418, 40.71188], [-74.01405, 40.71244], [-74.01375, 40.71369], [-74.0136, 40.71362], [-74.01254, 40.71318], [-74.01166, 40.7128], [-74.01012, 40.71208], [-74.00884, 40.7115], [-74.0086, 40.71139], [-74.00906, 40.71089], [-74.00947, 40.71041], [-74.00954, 40.71033], [-74.00999, 40.70981], [-74.01054, 40.70915], [-74.01085, 40.7088], [-74.01101, 40.70859], [-74.01118, 40.70839], [-74.01125, 40.7083], [-74.0117, 40.70776], [-74.01195, 40.70745], [-74.01251, 40.70677], [-74.01325, 40.70587], [-74.01331, 40.70571], [-74.01334, 40.70554], [-74.01336, 40.70537], [-74.01335, 40.7052], [-74.01333, 40.70503]]]}}]}