{"type": "FeatureCollection", "features": [{"type": "Feature", "properties": {"zone_id": 162, "zone": "Midtown East", "borough": "Manhattan", "demand": 98}, "geometry": {"type": "Polygon", "coordinates": [[[-73.97122, 40.75519], [-73.97168, 40.75457], [-73.97214, 40.75394], [-73.97259, 40.75332], [-73.97304, 40.75269], [-73.9735, 40.75206], [-73.97396, 40.75144], [-73.97445, 40.75077], [-73.97605, 40.75144], [-73.97685, 40.75178], [-73.97711, 40.75188], [-73.97754, 40.75206], [-73.97768, 40.75212], [-73.97779, 40.75217], [-73.97837, 40.75242], [-73.97787, 40.7531], [-73.97743, 40.75372], [-73.97697, 40.75435], [-73.97652, 40.75497], [-73.9759, 40.75471], [-73.97581, 40.75468], [-73.97534, 40.7553], [-73.97489, 40.75592], [-73.97444, 40.75656], [-73.97398, 40.75718], [-73.97352, 40.75781], [-73.97307, 40.75843], [-73.97261, 40.75906], [-73.97216, 40.75968], [-73.9717, 40.76031], [-73.97124, 40.76094], [-73.97075, 40.76161], [-73.97026, 40.76229], [-73.9698, 40.76291], [-73.96969, 40.76287], [-73.96819, 40.76223], [-73.96658, 40.76155], [-73.96657, 40.76148], [-73.96699, 40.7609], [-73.96746, 40.76022], [-73.96792, 40.75959], [-73.96802, 40.75958], [-73.96848, 40.75895], [-73.96893, 40.75833], [-73.96939, 40.7577], [-73.96985, 40.75708], [-73.97031, 40.75645], [-73.97076, 40.75582], [-73.97122, 40.75519]]]}}]}