{"type": "FeatureCollection", "features": [{"type": "Feature", "properties": {"zone_id": 48, "zone": "Clinton East", "borough": "Manhattan", "demand": 10577}, "geometry": {"type": "Polygon", "coordinates": [[[-73.99118, 40.75533], [-73.99163, 40.75471], [-73.99447, 40.75591], [-73.99501, 40.75614], [-73.99511, 40.75618], [-73.99577, 40.75645], [-73.99731, 40.75711], [-73.99723, 40.75721], [-73.99692, 40.75764], [-73.99685, 40.75773], [-73.9968, 40.75779], [-73.99664, 40.75801], [-73.99641, 40.75834], [-73.99594, 40.75898], [-73.99547, 40.75963], [-73.99498, 40.7603], [-73.99453, 40.76093], [-73.99407, 40.76155], [-73.99361, 40.76218], [-73.99316, 40.76281], [-73.9927, 40.76343], [-73.99224, 40.76406], [-73.99179, 40.76468], [-73.99133, 40.76531], [-73.99088, 40.76593], [-73.99042, 40.76656], [-73.98996, 40.76719], [-73.9895, 40.76781], [-73.98905, 40.76844], [-73.98856, 40.76912], [-73.98806, 40.76979], [-73.98522, 40.76859], [-73.98237, 40.76739], [-73.98288, 40.76672], [-73.98337, 40.76604], [-73.98382, 40.76542], [-73.98428, 40.76479], [-73.98473, 40.76417], [-73.98519, 40.76354], [-73.98565, 40.76291], [-73.9861, 40.76229], [-73.98656, 40.76166], [-73.98701, 40.76104], [-73.98747, 40.7604], [-73.98793, 40.75979], [-73.98839, 40.75916], [-73.98884, 40.75853], [-73.9893, 40.75791], [-73.98979, 40.75723], [-73.99028, 40.75657], [-73.99073, 40.75595], [-73.99118, 40.75533]]]}}, {"type": "Feature", "properties": {"zone_id": 68, "zone": "East Chelsea", "borough": "Manhattan", "demand": 6451}, "geometry": {"type": "Polygon", "coordinates": [[[-74.00202, 40.74044], [-74.00252, 40.73975], [-74.00311, 40.74], [-74.00516, 40.74086], [-74.00537, 40.74094], [-74.00697, 40.74163], [-74.00779, 40.74197], [-74.0082, 40.74215], [-74.0079, 40.74257], [-74.0077, 40.74283], [-74.00724, 40.74347], [-74.00697, 40.74385], [-74.00681, 40.74406], [-74.00638, 40.74465], [-74.00596, 40.74523], [-74.00553, 40.74582], [-74.00511, 40.7464], [-74.00465, 40.74702], [-74.00417, 40.74769], [-74.0039, 40.74805], [-74.00368, 40.74835], [-74.00324, 40.74897], [-74.00316, 40.74908], [-74.00313, 40.74912], [-74.00278, 40.74959], [-74.00246, 40.75004], [-74.00243, 40.75007], [-74.00233, 40.75021], [-74.00188, 40.75083], [-74.00143, 40.75145], [-74.00097, 40.75205], [-74.00086, 40.75221], [-74.00053, 40.75269], [-74.00002, 40.75339], [-73.99992, 40.75352], [-73.99963, 40.75392], [-73.99914, 40.75458], [-73.99866, 40.75525], [-73.99821, 40.75587], [-73.99776, 40.75649], [-73.99731, 40.75711], [-73.99577, 40.75645], [-73.99511, 40.75618], [-73.99501, 40.75614], [-73.99447, 40.75591], [-73.99163, 40.75471], [-73.99208, 40.75409], [-73.99253, 40.75347], [-73.99298, 40.75285], [-73.99346, 40.75219], [-73.99395, 40.75152], [-73.99438, 40.75093], [-73.99484, 40.75029], [-73.9953, 40.74967], [-73.99575, 40.74905], [-73.9962, 40.74844], [-73.99665, 40.74782], [-73.9971, 40.7472], [-73.99755, 40.74658], [-73.99801, 40.74595], [-73.99849, 40.74529], [-73.99897, 40.74463], [-73.99942, 40.74401], [-73.99985, 40.74342], [-74.00027, 40.74284], [-74.0007, 40.74225], [-74.00113, 40.74167], [-74.00156, 40.74108], [-74.00202, 40.74044]]]}}, {"type": "Feature", "properties": {"zone_id": 79, "zone": "East Village", "borough": "Manhattan", "demand": 13047}, "geometry": {"type": "Polygon", "coordinates": [[[-73.98378, 40.72154], [-73.98382, 40.72147], [-73.98468, 40.72173], [-73.98552, 40.72198], [-73.98629, 40.72224], [-73.98714, 40.72247], [-73.98786, 40.7227], [-73.98854, 40.7229], [-73.98864, 40.72293], [-73.98876, 40.72297], [-73.98939, 40.72317], [-73.99027, 40.72343], [-73.99102, 40.72365], [-73.99127, 40.72373], [-73.99135, 40.72375], [-73.9925, 40.72411], [-73.9926, 40.72414], [-73.99258, 40.7242], [-73.99233, 40.72491], [-73.99221, 40.72523], [-73.99206, 40.72564], [-73.99179, 40.72639], [-73.99155, 40.72709], [-73.99136, 40.72756], [-73.99136, 40.72778], [-73.99112, 40.72857], [-73.99093, 40.72914], [-73.99076, 40.72974], [-73.99073, 40.72988], [-73.99051, 40.73056], [-73.99039, 40.73129], [-73.99021, 40.732], [-73.99003, 40.73276], [-73.98987, 40.73353], [-73.9899, 40.73443], [-73.98878, 40.73396], [-73.98718, 40.73329], [-73.98494, 40.73235], [-73.98256, 40.73135], [-73.98247, 40.73131], [-73.9815, 40.73092], [-73.98082, 40.73064], [-73.98034, 40.73044], [-73.97927, 40.72998], [-73.97803, 40.72943], [-73.97806, 40.72938], [-73.97854, 40.72875], [-73.979, 40.72811], [-73.97947, 40.72747], [-73.97991, 40.72687], [-73.98033, 40.72628], [-73.98077, 40.72569], [-73.98121, 40.72507], [-73.98164, 40.72449], [-73.98208, 40.72388], [-73.98252, 40.72328], [-73.98296, 40.72267], [-73.98344, 40.72202], [-73.98378, 40.72154]]]}}, {"type": "Feature", "properties": {"zone_id": 107, "zone": "Gramercy", "borough": "Manhattan", "demand": 7161}, "geometry": {"type": "Polygon", "coordinates": [[[-73.98239, 40.73141], [-73.98256, 40.73135], [-73.98494, 40.73235], [-73.98718, 40.73329], [-73.98878, 40.73396], [-73.9899, 40.73443], [-73.98997, 40.7349], [-73.98998, 40.73498], [-73.98998, 40.73505], [-73.98997, 40.73513], [-73.98996, 40.7352], [-73.98994, 40.73528], [-73.98992, 40.73535], [-73.98987, 40.73541], [-73.98945, 40.73599], [-73.98921, 40.73631], [-73.98902, 40.73656], [-73.98859, 40.73714], [-73.98818, 40.73773], [-73.98774, 40.73831], [-73.9873, 40.7389], [-73.98704, 40.73927], [-73.98685, 40.73952], [-73.98636, 40.74018], [-73.98588, 40.74085], [-73.98543, 40.74147], [-73.98498, 40.74209], [-73.98453, 40.74271], [-73.98407, 40.74332], [-73.98401, 40.7433], [-73.98245, 40.74265], [-73.98086, 40.74197], [-73.98131, 40.74135], [-73.98176, 40.74073], [-73.98221, 40.74011], [-73.98266, 40.7395], [-73.98042, 40.73855], [-73.97949, 40.73816], [-73.97892, 40.73792], [-73.97805, 40.73755], [-73.9785, 40.73679], [-73.97857, 40.73668], [-73.97891, 40.73616], [-73.97935, 40.73555], [-73.97945, 40.73541], [-73.97979, 40.73496], [-73.98009, 40.73454], [-73.9802, 40.73438], [-73.98042, 40.73409], [-73.98064, 40.73378], [-73.98105, 40.73321], [-73.9815, 40.73262], [-73.9818, 40.7322], [-73.98197, 40.73198], [-73.98232, 40.7315], [-73.98239, 40.73141]]]}}, {"type": "Feature", "properties": {"zone_id": 142, "zone": "Lincoln Square East", "borough": "Manhattan", "demand": 5114}, "geometry": {"type": "Polygon", "coordinates": [[[-73.98148, 40.76772], [-73.98155, 40.76768], [-73.98163, 40.76764], [-73.98173, 40.76762], [-73.98173, 40.76762], [-73.98173, 40.76762], [-73.98184, 40.76761], [-73.98184, 40.76761], [-73.98184, 40.76761], [-73.98195, 40.76762], [-73.98195, 40.76762], [-73.98195, 40.76762], [-73.98206, 40.76764], [-73.98206, 40.76764], [-73.98206, 40.76764], [-73.98215, 40.76768], [-73.98237, 40.76739], [-73.98522, 40.76859], [-73.98806, 40.76979], [-73.98761, 40.77041], [-73.98715, 40.77105], [-73.9867, 40.77167], [-73.98665, 40.77172], [-73.98649, 40.77195], [-73.98645, 40.772], [-73.98624, 40.7723], [-73.98618, 40.77237], [-73.98613, 40.77244], [-73.98602, 40.77259], [-73.98596, 40.77267], [-73.98582, 40.77286], [-73.98578, 40.77292], [-73.98576, 40.77295], [-73.98562, 40.77314], [-73.98557, 40.77321], [-73.98552, 40.77328], [-73.98547, 40.77334], [-73.98533, 40.77353], [-73.98488, 40.77416], [-73.98441, 40.77481], [-73.98397, 40.77543], [-73.9835, 40.77605], [-73.98305, 40.77668], [-73.98258, 40.7773], [-73.98216, 40.77797], [-73.98212, 40.77801], [-73.98162, 40.77861], [-73.98113, 40.77929], [-73.98067, 40.77992], [-73.97783, 40.77873], [-73.975, 40.77753], [-73.97546, 40.7769], [-73.97595, 40.77622], [-73.97646, 40.77553], [-73.97691, 40.77491], [-73.97737, 40.77428], [-73.97783, 40.77366], [-73.97828, 40.77303], [-73.97872, 40.77242], [-73.97919, 40.77178], [-73.97965, 40.77115], [-73.98011, 40.77053], [-73.98056, 40.7699], [-73.98102, 40.76927], [-73.98165, 40.76844], [-73.98155, 40.76838], [-73.98155, 40.76838], [-73.98145, 40.76832], [-73.98145, 40.76832], [-73.98145, 40.76832], [-73.98137, 40.76825], [-73.98133, 40.76819], [-73.98129, 40.76812], [-73.98128, 40.76804], [-73.98129, 40.76797], [-73.98129, 40.76797], [-73.98129, 40.76797], [-73.98132, 40.7679], [-73.98136, 40.76784], [-73.98141, 40.76778], [-73.98148, 40.76772]]]}}, {"type": "Feature", "properties": {"zone_id": 148, "zone": "Lower East Side", "borough": "Manhattan", "demand": 7421}, "geometry": {"type": "Polygon", "coordinates": [[[-73.98448, 40.72023], [-73.98507, 40.71908], [-73.98591, 40.71934], [-73.98675, 40.71959], [-73.98736, 40.71837], [-73.98739, 40.7183], [-73.98743, 40.71821], [-73.98751, 40.71807], [-73.98788, 40.71741], [-73.98792, 40.71734], [-73.98795, 40.71727], [-73.98837, 40.71645], [-73.98915, 40.71671], [-73.98975, 40.71555], [-73.9902, 40.71466], [-73.99022, 40.71458], [-73.99023, 40.71449], [-73.99022, 40.7144], [-73.99075, 40.71455], [-73.99123, 40.71449], [-73.99213, 40.71442], [-73.99256, 40.71439], [-73.99282, 40.71436], [-73.99302, 40.71436], [-73.99395, 40.71429], [-73.99414, 40.71427], [-73.99432, 40.71425], [-73.99435, 40.71425], [-73.9945, 40.71423], [-73.99466, 40.71422], [-73.99472, 40.71422], [-73.99484, 40.71421], [-73.99648, 40.71411], [-73.99744, 40.71407], [-73.9975, 40.71407], [-73.99709, 40.71462], [-73.99681, 40.71504], [-73.99653, 40.71549], [-73.99622, 40.716], [-73.99615, 40.71608], [-73.99606, 40.71623], [-73.99581, 40.71664], [-73.99543, 40.71728], [-73.99481, 40.71846], [-73.99442, 40.71939], [-73.99438, 40.71952], [-73.99403, 40.72032], [-73.9938, 40.72094], [-73.99352, 40.72163], [-73.99326, 40.72235], [-73.99309, 40.72282], [-73.99263, 40.72406], [-73.9926, 40.72414], [-73.9925, 40.72411], [-73.99135, 40.72375], [-73.99127, 40.72373], [-73.99102, 40.72365], [-73.99027, 40.72343], [-73.98939, 40.72317], [-73.98876, 40.72297], [-73.98864, 40.72293], [-73.98854, 40.7229], [-73.98786, 40.7227], [-73.98714, 40.72247], [-73.98629, 40.72224], [-73.98552, 40.72198], [-73.98468, 40.72173], [-73.98382, 40.72147], [-73.98386, 40.7214], [-73.98448, 40.72023]]]}}, {"type": "Feature", "properties": {"zone_id": 161, "zone": "Midtown Center", "borough": "Manhattan", "demand": 5953}, "geometry": {"type": "Polygon", "coordinates": [[[-73.97534, 40.7553], [-73.97581, 40.75468], [-73.9759, 40.75471], [-73.97652, 40.75497], [-73.97697, 40.75435], [-73.97743, 40.75372], [-73.97787, 40.7531], [-73.97837, 40.75242], [-73.97929, 40.7528], [-73.98089, 40.75348], [-73.98412, 40.75484], [-73.98362, 40.75552], [-73.98317, 40.75614], [-73.98271, 40.75677], [-73.98226, 40.75739], [-73.98179, 40.75802], [-73.98134, 40.75864], [-73.98089, 40.75927], [-73.98043, 40.7599], [-73.97997, 40.76052], [-73.97951, 40.76115], [-73.97906, 40.76177], [-73.9786, 40.7624], [-73.97814, 40.76302], [-73.97769, 40.76364], [-73.97446, 40.76229], [-73.97285, 40.76161], [-73.97134, 40.76098], [-73.97124, 40.76094], [-73.9717, 40.76031], [-73.97216, 40.75968], [-73.97261, 40.75906], [-73.97307, 40.75843], [-73.97352, 40.75781], [-73.97398, 40.75718], [-73.97444, 40.75656], [-73.97489, 40.75592], [-73.97534, 40.7553]]]}}, {"type": "Feature", "properties": {"zone_id": 164, "zone": "Midtown South", "borough": "Manhattan", "demand": 6267}, "geometry": {"type": "Polygon", "coordinates": [[[-73.98362, 40.74394], [-73.98407, 40.74332], [-73.98414, 40.74335], [-73.9857, 40.74401], [-73.9873, 40.74468], [-73.98873, 40.74529], [-73.99052, 40.74604], [-73.99007, 40.74666], [-73.98962, 40.74728], [-73.98917, 40.74789], [-73.98871, 40.74851], [-73.98824, 40.74913], [-73.98797, 40.74949], [-73.98777, 40.74979], [-73.98729, 40.75045], [-73.98685, 40.75108], [-73.9864, 40.7517], [-73.98595, 40.75232], [-73.98549, 40.75293], [-73.98504, 40.75355], [-73.9846, 40.75418], [-73.98412, 40.75484], [-73.98089, 40.75348], [-73.98137, 40.75281], [-73.98182, 40.7522], [-73.98227, 40.75158], [-73.98272, 40.75096], [-73.98317, 40.75034], [-73.98362, 40.74972], [-73.98408, 40.7491], [-73.98247, 40.74843], [-73.98094, 40.74779], [-73.98085, 40.74775], [-73.98134, 40.74708], [-73.98177, 40.7465], [-73.98183, 40.74642], [-73.98228, 40.7458], [-73.98233, 40.74573], [-73.98273, 40.74518], [-73.98317, 40.74456], [-73.98362, 40.74394]]]}}, {"type": "Feature", "properties": {"zone_id": 170, "zone": "Murray Hill", "borough": "Manhattan", "demand": 7170}, "geometry": {"type": "Polygon", "coordinates": [[[-73.97203, 40.7458], [-73.97213, 40.74568], [-73.97258, 40.74507], [-73.97303, 40.74445], [-73.97351, 40.74378], [-73.97522, 40.7445], [-73.97588, 40.74478], [-73.97736, 40.7454], [-73.97812, 40.74573], [-73.97861, 40.74506], [-73.97906, 40.74444], [-73.97951, 40.74382], [-73.97996, 40.7432], [-73.98041, 40.74259], [-73.98086, 40.74197], [-73.98245, 40.74265], [-73.98401, 40.7433], [-73.98407, 40.74332], [-73.98362, 40.74394], [-73.98317, 40.74456], [-73.98273, 40.74518], [-73.98233, 40.74573], [-73.98228, 40.7458], [-73.98183, 40.74642], [-73.98177, 40.7465], [-73.98134, 40.74708], [-73.98085, 40.74775], [-73.98094, 40.74779], [-73.98247, 40.74843], [-73.98408, 40.7491], [-73.98362, 40.74972], [-73.98317, 40.75034], [-73.98272, 40.75096], [-73.98227, 40.75158], [-73.98182, 40.7522], [-73.98137, 40.75281], [-73.98089, 40.75348], [-73.97929, 40.7528], [-73.97837, 40.75242], [-73.97779, 40.75217], [-73.97768, 40.75212], [-73.97754, 40.75206], [-73.97711, 40.75188], [-73.97685, 40.75178], [-73.97605, 40.75144], [-73.97445, 40.75077], [-73.97493, 40.7501], [-73.97538, 40.74948], [-73.97583, 40.74886], [-73.97497, 40.7485], [-73.97359, 40.74792], [-73.97274, 40.74756], [-73.97122, 40.74692], [-73.97166, 40.7463], [-73.97175, 40.74619], [-73.97194, 40.74593], [-73.97203, 40.7458]]]}}, {"type": "Feature", "properties": {"zone_id": 186, "zone": "Penn Station/Madison Sq West", "borough": "Manhattan", "demand": 5069}, "geometry": {"type": "Polygon", "coordinates": [[[-73.99097, 40.74542], [-73.99142, 40.7448], [-73.99426, 40.746], [-73.9971, 40.7472], [-73.99665, 40.74782], [-73.9962, 40.74844], [-73.99575, 40.74905], [-73.9953, 40.74967], [-73.99484, 40.75029], [-73.99438, 40.75093], [-73.99395, 40.75152], [-73.99346, 40.75219], [-73.99212, 40.75162], [-73.99062, 40.75099], [-73.98794, 40.74985], [-73.98777, 40.74979], [-73.98797, 40.74949], [-73.98824, 40.74913], [-73.98871, 40.74851], [-73.98917, 40.74789], [-73.98962, 40.74728], [-73.99007, 40.74666], [-73.99052, 40.74604], [-73.99097, 40.74542]]]}}, {"type": "Feature", "properties": {"zone_id": 234, "zone": "Union Sq", "borough": "Manhattan", "demand": 5521}, "geometry": {"type": "Polygon", "coordinates": [[[-73.98997, 40.7349], [-73.9899, 40.73443], [-73.99075, 40.73484], [-73.9912, 40.73501], [-73.99171, 40.73521], [-73.99362, 40.736], [-73.99684, 40.73736], [-73.99634, 40.73804], [-73.99587, 40.73869], [-73.99545, 40.73927], [-73.99502, 40.73986], [-73.99459, 40.74044], [-73.99416, 40.74103], [-73.99397, 40.7413], [-73.99374, 40.74162], [-73.99329, 40.74223], [-73.9928, 40.74291], [-73.99232, 40.74357], [-73.99187, 40.74419], [-73.99142, 40.7448], [-73.99097, 40.74542], [-73.99052, 40.74604], [-73.98873, 40.74529], [-73.9873, 40.74468], [-73.9857, 40.74401], [-73.98414, 40.74335], [-73.98407, 40.74332], [-73.98453, 40.74271], [-73.98498, 40.74209], [-73.98543, 40.74147], [-73.98588, 40.74085], [-73.98636, 40.74018], [-73.98685, 40.73952], [-73.98704, 40.73927], [-73.9873, 40.7389], [-73.98774, 40.73831], [-73.98818, 40.73773], [-73.98859, 40.73714], [-73.98902, 40.73656], [-73.98921, 40.73631], [-73.98945, 40.73599], [-73.98987, 40.73541], [-73.98992, 40.73535], [-73.98994, 40.73528], [-73.98996, 40.7352], [-73.98997, 40.73513], [-73.98998, 40.73505], [-73.98998, 40.73498], [-73.98997, 40.7349]]]}}, {"type": "Feature", "properties": {"zone_id": 237, "zone": "Upper East Side South", "borough": "Manhattan", "demand": 5399}, "geometry": {"type": "Polygon", "coordinates": [[[-73.96613, 40.76218], [-73.96658, 40.76155], [-73.96819, 40.76223], [-73.96969, 40.76287], [-73.9698, 40.76291], [-73.9699, 40.76296], [-73.97141, 40.76359], [-73.97301, 40.76428], [-73.97255, 40.7649], [-73.9721, 40.76552], [-73.97165, 40.76614], [-73.97119, 40.76677], [-73.97073, 40.76739], [-73.97028, 40.76802], [-73.96982, 40.76865], [-73.96936, 40.76927], [-73.9689, 40.7699], [-73.96844, 40.77052], [-73.96799, 40.77115], [-73.96753, 40.77178], [-73.96704, 40.77246], [-73.96654, 40.77314], [-73.96607, 40.77377], [-73.96561, 40.77441], [-73.96515, 40.77504], [-73.96469, 40.77568], [-73.96309, 40.775], [-73.96158, 40.77437], [-73.96148, 40.77432], [-73.96137, 40.77428], [-73.95986, 40.77364], [-73.95826, 40.77296], [-73.95872, 40.77233], [-73.95918, 40.7717], [-73.95964, 40.77106], [-73.96011, 40.77043], [-73.9606, 40.76975], [-73.9611, 40.76906], [-73.96156, 40.76844], [-73.96201, 40.76781], [-73.96247, 40.76718], [-73.96293, 40.76656], [-73.9634, 40.76591], [-73.96384, 40.76531], [-73.9643, 40.76468], [-73.96476, 40.76406], [-73.96521, 40.76343], [-73.96567, 40.7628], [-73.96613, 40.76218]]]}}, {"type": "Feature", "properties": {"zone_id": 239, "zone": "Upper West Side South", "borough": "Manhattan", "demand": 5717}, "geometry": {"type": "Polygon", "coordinates": [[[-73.97501, 40.78769], [-73.97217, 40.78649], [-73.96934, 40.78529], [-73.96983, 40.78461], [-73.9703, 40.78397], [-73.97076, 40.78334], [-73.97122, 40.78271], [-73.97172, 40.78202], [-73.97357, 40.77948], [-73.97407, 40.7788], [-73.97453, 40.77817], [-73.975, 40.77753], [-73.97783, 40.77873], [-73.98067, 40.77992], [-73.98141, 40.78023], [-73.98152, 40.78028], [-73.98163, 40.78033], [-73.98351, 40.78112], [-73.98507, 40.78178], [-73.98537, 40.78108], [-73.98568, 40.78031], [-73.98654, 40.78066], [-73.98707, 40.78091], [-73.98731, 40.78104], [-73.98736, 40.78106], [-73.98741, 40.78109], [-73.98746, 40.78111], [-73.98799, 40.78134], [-73.98813, 40.7814], [-73.98804, 40.78159], [-73.9881, 40.7816], [-73.98808, 40.78165], [-73.98802, 40.78163], [-73.98796, 40.78177], [-73.98792, 40.78183], [-73.98788, 40.78189], [-73.98647, 40.78392], [-73.98625, 40.78424], [-73.98611, 40.78444], [-73.98562, 40.78514], [-73.98547, 40.78536], [-73.98617, 40.78607], [-73.98646, 40.78592], [-73.98707, 40.78519], [-73.98712, 40.78521], [-73.9865, 40.78595], [-73.98616, 40.78612], [-73.98613, 40.78624], [-73.98607, 40.78624], [-73.98603, 40.78623], [-73.9861, 40.78606], [-73.98543, 40.78541], [-73.98508, 40.78592], [-73.9852, 40.78597], [-73.98517, 40.78601], [-73.98522, 40.78603], [-73.98525, 40.78598], [-73.98524, 40.78597], [-73.98525, 40.78596], [-73.98528, 40.78598], [-73.98524, 40.78604], [-73.98568, 40.78622], [-73.98572, 40.78618], [-73.98577, 40.7862], [-73.98568, 40.78631], [-73.98564, 40.78629], [-73.98567, 40.78624], [-73.98561, 40.78622], [-73.9852, 40.78605], [-73.98521, 40.78604], [-73.98516, 40.78602], [-73.98513, 40.78606], [-73.98502, 40.78601], [-73.98494, 40.78613], [-73.98465, 40.78653], [-73.98574, 40.78657], [-73.98589, 40.78643], [-73.98594, 40.78645], [-73.98595, 40.78649], [-73.98581, 40.78662], [-73.98513, 40.78659], [-73.98462, 40.78659], [-73.98372, 40.78789], [-73.98235, 40.78985], [-73.98189, 40.79052], [-73.98186, 40.7905], [-73.98177, 40.79045], [-73.98169, 40.79042], [-73.98159, 40.79038], [-73.98097, 40.79016], [-73.98036, 40.78994], [-73.97786, 40.78888], [-73.9766, 40.78835], [-73.9765, 40.78831], [-73.97639, 40.78827], [-73.97501, 40.78769]]]}}, {"type": "Feature", "properties": {"zone_id": 249, "zone": "West Village", "borough": "Manhattan", "demand": 5401}, "geometry": {"type": "Polygon", "coordinates": [[[-74.00251, 40.72902], [-74.00282, 40.72836], [-74.00313, 40.72839], [-74.00531, 40.7286], [-74.00709, 40.72877], [-74.00697, 40.72949], [-74.00686, 40.73023], [-74.00674, 40.73095], [-74.00662, 40.73167], [-74.0065, 40.73243], [-74.00641, 40.73305], [-74.00629, 40.73374], [-74.00618, 40.73444], [-74.00607, 40.73513], [-74.00596, 40.73584], [-74.00585, 40.73653], [-74.0058, 40.73692], [-74.00569, 40.73755], [-74.00559, 40.73814], [-74.00549, 40.73875], [-74.00539, 40.73941], [-74.00529, 40.74002], [-74.00516, 40.74086], [-74.00252, 40.73975], [-73.99968, 40.73855], [-73.99684, 40.73736], [-73.99734, 40.73667], [-73.9978, 40.73603], [-73.99827, 40.73539], [-73.99853, 40.73504], [-73.99871, 40.73478], [-73.99919, 40.73413], [-73.99956, 40.73361], [-73.99976, 40.73334], [-74.00007, 40.73293], [-74.00051, 40.73231], [-74.00095, 40.73171], [-74.00141, 40.73106], [-74.00168, 40.73058], [-74.00214, 40.7298], [-74.0022, 40.72965], [-74.00251, 40.72902]]]}}, {"type": "Feature", "properties": {"zone_id": 263, "zone": "Yorkville West", "borough": "Manhattan", "demand": 6032}, "geometry": {"type": "Polygon", "coordinates": [[[-73.95219, 40.77302], [-73.95268, 40.77234], [-73.95505, 40.77334], [-73.95729, 40.77428], [-73.9568, 40.77497], [-73.95633, 40.7756], [-73.95587, 40.77624], [-73.95541, 40.77687], [-73.95494, 40.7775], [-73.95448, 40.77814], [-73.95398, 40.77882], [-73.95349, 40.7795], [-73.95303, 40.78012], [-73.95257, 40.78075], [-73.95212, 40.78139], [-73.95166, 40.78201], [-73.9512, 40.78263], [-73.95074, 40.78326], [-73.95028, 40.78389], [-73.94982, 40.78451], [-73.94933, 40.78519], [-73.94707, 40.78424], [-73.94472, 40.78325], [-73.94521, 40.78257], [-73.94525, 40.78252], [-73.94537, 40.78236], [-73.94567, 40.78195], [-73.94574, 40.78185], [-73.94588, 40.78166], [-73.94613, 40.78132], [-73.9462, 40.78123], [-73.94631, 40.78108], [-73.94642, 40.78092], [-73.94648, 40.78084], [-73.94659, 40.78069], [-73.94705, 40.78006], [-73.94751, 40.77944], [-73.94797, 40.77881], [-73.94842, 40.77818], [-73.94888, 40.77755], [-73.94937, 40.77688], [-73.94987, 40.7762], [-73.95034, 40.77556], [-73.9508, 40.77493], [-73.95126, 40.77429], [-73.95172, 40.77366], [-73.95182, 40.77353], [-73.95219, 40.77302]]]}}]}