{"type": "FeatureCollection", "features": [{"type": "Feature", "properties": {"zone_id": 4, "zone": "Alphabet City", "borough": "Manhattan", "demand": 27}, "geometry": {"type": "Polygon", "coordinates": [[[-73.97177, 40.72582], [-73.97179, 40.72581], [-73.97182, 40.72581], [-73.97186, 40.72558], [-73.97187, 40.7255], [-73.97188, 40.72542], [-73.97191, 40.72529], [-73.97193, 40.72518], [-73.97194, 40.72516], [-73.97196, 40.72504], [-73.972, 40.72484], [-73.97204, 40.72468], [-73.97207, 40.72456], [-73.97207, 40.72454], [-73.97208, 40.7245], [-73.97208, 40.72447], [-73.9721, 40.72442], [-73.97216, 40.72417], [-73.97217, 40.72413], [-73.97222, 40.72393], [-73.97223, 40.72385], [-73.97226, 40.72371], [-73.97232, 40.72346], [-73.97236, 40.72331], [-73.9724, 40.72315], [-73.97251, 40.7227], [-73.97289, 40.72109], [-73.97305, 40.72044], [-73.97313, 40.72009], [-73.97321, 40.71978], [-73.97333, 40.71936], [-73.97348, 40.71886], [-73.97465, 40.71884], [-73.97469, 40.71884], [-73.97474, 40.71884], [-73.97486, 40.71885], [-73.97491, 40.71886], [-73.97498, 40.71887], [-73.9751, 40.71888], [-73.97545, 40.71895], [-73.97551, 40.71896], [-73.97609, 40.71908], [-73.97636, 40.71913], [-73.97648, 40.71916], [-73.97674, 40.71921], [-73.97722, 40.71931], [-73.97803, 40.71964], [-73.97875, 40.71993], [-73.97966, 40.72021], [-73.98131, 40.72071], [-73.98217, 40.72097], [-73.983, 40.72122], [-73.98382, 40.72147], [-73.98378, 40.72154], [-73.98344, 40.72202], [-73.98296, 40.72267], [-73.98252, 40.72328], [-73.98208, 40.72388], [-73.98164, 40.72449], [-73.98121, 40.72507], [-73.98077, 40.72569], [-73.98033, 40.72628], [-73.97991, 40.72687], [-73.97947, 40.72747], [-73.979, 40.72811], [-73.97854, 40.72875], [-73.97806, 40.72938], [-73.97803, 40.72943], [-73.97739, 40.72916], [-73.9769, 40.72896], [-73.97627, 40.72869], [-73.97615, 40.72864], [-73.97613, 40.72864], [-73.9758, 40.72852], [-73.9757, 40.72847], [-73.9733, 40.72743], [-73.97205, 40.72688], [-73.97198, 40.72683], [-73.97191, 40.72679], [-73.97186, 40.72676], [-73.9718, 40.72671], [-73.97163, 40.72663], [-73.97167, 40.72639], [-73.9717, 40.72624], [-73.97172, 40.72612], [-73.97174, 40.726], [-73.97177, 40.72583], [-73.97177, 40.72582]]]}}, {"type": "Feature", "properties": {"zone_id": 13, "zone": "Battery Park City", "borough": "Manhattan", "demand": 36}, "geometry": {"type": "Polygon", "coordinates": [[[-74.01244, 40.71906], [-74.01282, 40.71736], [-74.01287, 40.71718], [-74.01305, 40.71645], [-74.01323, 40.71566], [-74.01335, 40.71523], [-74.01348, 40.71511], [-74.01359, 40.71449], [-74.01375, 40.71369], [-74.01405, 40.71244], [-74.01418, 40.71188], [-74.01427, 40.71147], [-74.01446, 40.71091], [-74.01466, 40.71043], [-74.01482, 40.70982], [-74.01487, 40.70968], [-74.01495, 40.70943], [-74.01534, 40.7085], [-74.01559, 40.70788], [-74.01564, 40.70776], [-74.01569, 40.70766], [-74.01572, 40.70758], [-74.01585, 40.70725], [-74.01586, 40.7072], [-74.01589, 40.70714], [-74.0159, 40.70709], [-74.01594, 40.70701], [-74.01606, 40.7067], [-74.0162, 40.70626], [-74.01625, 40.70607], [-74.0164, 40.70567], [-74.01662, 40.70509], [-74.01665, 40.70496], [-74.01669, 40.7048], [-74.01669, 40.70474], [-74.01676, 40.70474], [-74.01685, 40.70463], [-74.01713, 40.70428], [-74.01757, 40.70418], [-74.01779, 40.70423], [-74.01786, 40.70408], [-74.01775, 40.70405], [-74.01779, 40.70395], [-74.01782, 40.70394], [-74.01784, 40.70396], [-74.01781, 40.70403], [-74.01791, 40.70405], [-74.01794, 40.70397], [-74.01795, 40.70398], [-74.01784, 40.70424], [-74.01845, 40.70416], [-74.01867, 40.70443], [-74.01866, 40.70444], [-74.01752, 40.70458], [-74.01748, 40.70467], [-74.01753, 40.70467], [-74.01755, 40.70466], [-74.01756, 40.70467], [-74.01757, 40.70466], [-74.01757, 40.70467], [-74.01757, 40.70467], [-74.0176, 40.70468], [-74.01763, 40.70468], [-74.01768, 40.70468], [-74.01769, 40.70467], [-74.01772, 40.70468], [-74.01773, 40.70467], [-74.01775, 40.70468], [-74.01777, 40.70467], [-74.01777, 40.70466], [-74.01778, 40.70467], [-74.0178, 40.70467], [-74.01781, 40.70466], [-74.01783, 40.70466], [-74.01784, 40.70466], [-74.0179, 40.70465], [-74.01791, 40.70466], [-74.01794, 40.70466], [-74.01794, 40.70465], [-74.01797, 40.70465], [-74.01798, 40.70464], [-74.01799, 40.70465], [-74.018, 40.70465], [-74.01801, 40.70464], [-74.01802, 40.70465], [-74.01804, 40.70463], [-74.01805, 40.70463], [-74.01806, 40.70464], [-74.01811, 40.70455], [-74.01886, 40.70472], [-74.01889, 40.70473], [-74.01893, 40.70477], [-74.01934, 40.70607], [-74.01934, 40.70609], [-74.01922, 40.70657], [-74.01912, 40.70698], [-74.0191, 40.707], [-74.01909, 40.707], [-74.01907, 40.70701], [-74.01903, 40.70701], [-74.01895, 40.707], [-74.01895, 40.70702], [-74.01894, 40.70703], [-74.01893, 40.70704], [-74.01891, 40.70706], [-74.01888, 40.70709], [-74.01886, 40.7071], [-74.01883, 40.70712], [-74.0188, 40.70713], [-74.01876, 40.70714], [-74.01873, 40.70714], [-74.01869, 40.70714], [-74.01866, 40.70714], [-74.01863, 40.70714], [-74.01858, 40.70712], [-74.01855, 40.70711], [-74.01857, 40.70708], [-74.01861, 40.7071], [-74.01863, 40.7071], [-74.01864, 40.70711], [-74.01865, 40.70708], [-74.01869, 40.70708], [-74.01872, 40.70708], [-74.01875, 40.70708], [-74.01876, 40.70708], [-74.01875, 40.70705], [-74.01877, 40.70704], [-74.01879, 40.70703], [-74.01882, 40.70702], [-74.01884, 40.70699], [-74.01885, 40.70698], [-74.01885, 40.70697], [-74.01881, 40.70697], [-74.0188, 40.70698], [-74.01878, 40.707], [-74.01874, 40.70701], [-74.01872, 40.70701], [-74.01869, 40.70701], [-74.01868, 40.70702], [-74.01865, 40.70702], [-74.01863, 40.70701], [-74.01861, 40.707], [-74.0186, 40.70699], [-74.0186, 40.70697], [-74.01859, 40.70696], [-74.01858, 40.70695], [-74.01857, 40.70694], [-74.01857, 40.70692], [-74.01856, 40.70691], [-74.01855, 40.70691], [-74.01853, 40.70692], [-74.01853, 40.70695], [-74.01841, 40.70726], [-74.01822, 40.70774], [-74.01822, 40.70775], [-74.01819, 40.70782], [-74.01866, 40.70792], [-74.01865, 40.70795], [-74.0188, 40.70798], [-74.01883, 40.708], [-74.01883, 40.708], [-74.01885, 40.70802], [-74.01885, 40.70805], [-74.01875, 40.70848], [-74.01863, 40.70894], [-74.01847, 40.70959], [-74.01834, 40.71011], [-74.01826, 40.71041], [-74.01814, 40.71089], [-74.01811, 40.71103], [-74.01805, 40.71134], [-74.01798, 40.71176], [-74.01792, 40.71204], [-74.01787, 40.71231], [-74.01777, 40.71283], [-74.01775, 40.71285], [-74.01773, 40.71285], [-74.01772, 40.71284], [-74.01772, 40.71278], [-74.0178, 40.71234], [-74.01662, 40.71216], [-74.01654, 40.71246], [-74.01659, 40.71255], [-74.01662, 40.71265], [-74.01662, 40.71276], [-74.01659, 40.71286], [-74.01656, 40.71293], [-74.01654, 40.71296], [-74.01648, 40.71303], [-74.01639, 40.7131], [-74.01632, 40.71341], [-74.01654, 40.71344], [-74.01691, 40.7135], [-74.01754, 40.71361], [-74.01757, 40.71352], [-74.01758, 40.71344], [-74.01765, 40.71321], [-74.01765, 40.71316], [-74.01767, 40.71307], [-74.01767, 40.71307], [-74.01768, 40.71306], [-74.01768, 40.71306], [-74.01768, 40.71306], [-74.01769, 40.71306], [-74.01769, 40.71306], [-74.0177, 40.71306], [-74.0177, 40.71306], [-74.01771, 40.71306], [-74.01771, 40.71306], [-74.01771, 40.71306], [-74.01772, 40.71306], [-74.01772, 40.71306], [-74.01772, 40.71307], [-74.01772, 40.71307], [-74.01771, 40.71317], [-74.01762, 40.71365], [-74.01754, 40.7141], [-74.01741, 40.71481], [-74.01738, 40.71494], [-74.01726, 40.71559], [-74.01712, 40.71637], [-74.01698, 40.71713], [-74.01686, 40.71779], [-74.01671, 40.71862], [-74.01669, 40.71865], [-74.01666, 40.71867], [-74.01663, 40.71866], [-74.01595, 40.71858], [-74.01594, 40.71859], [-74.01567, 40.71855], [-74.01567, 40.71854], [-74.01555, 40.71852], [-74.015, 40.71845], [-74.015, 40.71847], [-74.01499, 40.71851], [-74.01498, 40.71852], [-74.01497, 40.71854], [-74.01494, 40.71854], [-74.0147, 40.71852], [-74.01321, 40.71832], [-74.01307, 40.71892], [-74.01307, 40.71894], [-74.01303, 40.71913], [-74.0127, 40.71909], [-74.01255, 40.71907], [-74.01244, 40.71906]]]}}, {"type": "Feature", "properties": {"zone_id": 24, "zone": "Bloomingdale", "borough": "Manhattan", "demand": 41}, "geometry": {"type": "Polygon", "coordinates": [[[-73.95954, 40.79872], [-73.96004, 40.79804], [-73.96148, 40.79865], [-73.96287, 40.79924], [-73.96571, 40.80044], [-73.96776, 40.8013], [-73.96787, 40.80135], [-73.96798, 40.8014], [-73.96858, 40.80163], [-73.97005, 40.80226], [-73.97022, 40.80234], [-73.97027, 40.80236], [-73.97033, 40.80238], [-73.9715, 40.80284], [-73.9725, 40.80322], [-73.97258, 40.80325], [-73.97266, 40.80328], [-73.9728, 40.80333], [-73.97287, 40.80336], [-73.97255, 40.8038], [-73.97217, 40.80432], [-73.97205, 40.80453], [-73.97195, 40.80462], [-73.97182, 40.80472], [-73.9718, 40.80479], [-73.97171, 40.80493], [-73.97162, 40.80504], [-73.97161, 40.8051], [-73.97144, 40.80533], [-73.97129, 40.80553], [-73.97111, 40.80579], [-73.97099, 40.80574], [-73.97084, 40.80568], [-73.97076, 40.80566], [-73.97069, 40.80563], [-73.96979, 40.8053], [-73.96861, 40.80487], [-73.96856, 40.80485], [-73.96849, 40.80483], [-73.96805, 40.80468], [-73.9668, 40.80421], [-73.9667, 40.80417], [-73.9666, 40.80412], [-73.96386, 40.80297], [-73.96108, 40.8018], [-73.95965, 40.80116], [-73.95848, 40.80067], [-73.95817, 40.80058], [-73.95833, 40.80036], [-73.95862, 40.79998], [-73.95908, 40.79935], [-73.95954, 40.79872]]]}}, {"type": "Feature", "properties": {"zone_id": 41, "zone": "Central Harlem", "borough": "Manhattan", "demand": 33}, "geometry": {"type": "Polygon", "coordinates": [[[-73.94774, 40.8096], [-73.94506, 40.80847], [-73.94499, 40.80845], [-73.94492, 40.80841], [-73.94177, 40.80709], [-73.94226, 40.80642], [-73.94275, 40.80574], [-73.9443, 40.80639], [-73.94478, 40.80576], [-73.94524, 40.80514], [-73.94569, 40.80451], [-73.94613, 40.80388], [-73.9446, 40.80323], [-73.94476, 40.803], [-73.94505, 40.8026], [-73.94551, 40.80197], [-73.94597, 40.80134], [-73.94646, 40.80066], [-73.94697, 40.79996], [-73.94728, 40.79954], [-73.94733, 40.79948], [-73.94738, 40.79941], [-73.94742, 40.79935], [-73.94771, 40.79895], [-73.94776, 40.79889], [-73.94782, 40.79881], [-73.94785, 40.79876], [-73.94805, 40.79848], [-73.9481, 40.79842], [-73.94815, 40.79834], [-73.94821, 40.79827], [-73.94831, 40.79813], [-73.94879, 40.79748], [-73.9491, 40.79706], [-73.94922, 40.79691], [-73.9496, 40.79705], [-73.95237, 40.79821], [-73.95245, 40.79824], [-73.95254, 40.79827], [-73.95516, 40.79938], [-73.95522, 40.7994], [-73.95529, 40.79943], [-73.95537, 40.79947], [-73.95786, 40.80051], [-73.95817, 40.80058], [-73.95848, 40.80067], [-73.95965, 40.80116], [-73.95915, 40.80184], [-73.95869, 40.80247], [-73.95825, 40.80311], [-73.9582, 40.80389], [-73.95825, 40.80471], [-73.95818, 40.8056], [-73.95772, 40.80629], [-73.95727, 40.80692], [-73.95681, 40.80755], [-73.95634, 40.80817], [-73.95588, 40.8088], [-73.95543, 40.80943], [-73.95497, 40.81006], [-73.95358, 40.80948], [-73.95328, 40.80988], [-73.95308, 40.81009], [-73.95259, 40.81076], [-73.9521, 40.81144], [-73.95068, 40.81084], [-73.94792, 40.80968], [-73.94784, 40.80964], [-73.94774, 40.8096]]]}}, {"type": "Feature", "properties": {"zone_id": 42, "zone": "Central Harlem North", "borough": "Manhattan", "demand": 34}, "geometry": {"type": "Polygon", "coordinates": [[[-73.93436, 40.8362], [-73.93445, 40.83598], [-73.93456, 40.83587], [-73.93475, 40.83559], [-73.93475, 40.83557], [-73.9348, 40.83543], [-73.93482, 40.8354], [-73.93483, 40.83539], [-73.93485, 40.83535], [-73.93487, 40.83533], [-73.93489, 40.83525], [-73.93492, 40.83523], [-73.93494, 40.83508], [-73.93494, 40.83503], [-73.93496, 40.83488], [-73.93498, 40.83479], [-73.93499, 40.83475], [-73.93495, 40.83471], [-73.93496, 40.83468], [-73.93497, 40.83466], [-73.93497, 40.83463], [-73.93497, 40.83462], [-73.93497, 40.83461], [-73.93499, 40.8346], [-73.93503, 40.83439], [-73.93504, 40.8343], [-73.93503, 40.83425], [-73.93504, 40.83421], [-73.93508, 40.83392], [-73.93507, 40.83389], [-73.93508, 40.83387], [-73.9351, 40.83371], [-73.9351, 40.83368], [-73.9351, 40.83366], [-73.93511, 40.83343], [-73.93512, 40.83338], [-73.93512, 40.83335], [-73.93513, 40.83334], [-73.93513, 40.83333], [-73.93513, 40.83329], [-73.93512, 40.83328], [-73.93514, 40.83326], [-73.93514, 40.83324], [-73.93513, 40.83323], [-73.93512, 40.8332], [-73.93512, 40.83319], [-73.93512, 40.83318], [-73.93513, 40.83316], [-73.93514, 40.83315], [-73.93513, 40.83314], [-73.93512, 40.83305], [-73.93512, 40.83303], [-73.93512, 40.83302], [-73.93511, 40.833], [-73.93512, 40.83298], [-73.93512, 40.83297], [-73.93512, 40.83294], [-73.93512, 40.8329], [-73.93513, 40.8329], [-73.93514, 40.83288], [-73.93517, 40.83287], [-73.93516, 40.83285], [-73.93516, 40.83268], [-73.93513, 40.83236], [-73.93511, 40.83237], [-73.93508, 40.83194], [-73.9351, 40.83194], [-73.93509, 40.83186], [-73.93507, 40.8317], [-73.93502, 40.83132], [-73.93498, 40.83103], [-73.93493, 40.8306], [-73.93489, 40.83029], [-73.93483, 40.82981], [-73.9348, 40.82979], [-73.9348, 40.82977], [-73.93479, 40.82977], [-73.93479, 40.82976], [-73.93478, 40.82974], [-73.93477, 40.82972], [-73.93476, 40.8297], [-73.93476, 40.82966], [-73.93474, 40.82964], [-73.93474, 40.82961], [-73.93475, 40.8296], [-73.93474, 40.82957], [-73.93472, 40.82955], [-73.93473, 40.82953], [-73.93471, 40.82949], [-73.9347, 40.82944], [-73.93469, 40.82942], [-73.93471, 40.8294], [-73.9347, 40.82934], [-73.93469, 40.82933], [-73.93468, 40.82931], [-73.93466, 40.82918], [-73.93468, 40.82917], [-73.93471, 40.82916], [-73.9347, 40.82913], [-73.93468, 40.82913], [-73.93468, 40.82912], [-73.93467, 40.82911], [-73.93465, 40.8291], [-73.93465, 40.82905], [-73.93466, 40.82904], [-73.93466, 40.82901], [-73.93466, 40.82897], [-73.93466, 40.82894], [-73.93465, 40.82891], [-73.93464, 40.82891], [-73.93462, 40.82869], [-73.93461, 40.82869], [-73.9346, 40.82868], [-73.93461, 40.82866], [-73.93461, 40.82865], [-73.93461, 40.82865], [-73.9346, 40.82865], [-73.9346, 40.8286], [-73.9346, 40.82859], [-73.93461, 40.82857], [-73.93461, 40.82852], [-73.93461, 40.8285], [-73.93461, 40.82846], [-73.9346, 40.82843], [-73.93461, 40.8284], [-73.9346, 40.82838], [-73.93461, 40.82836], [-73.9346, 40.82834], [-73.9346, 40.82833], [-73.93459, 40.8283], [-73.93459, 40.82826], [-73.9346, 40.82825], [-73.93459, 40.82824], [-73.93459, 40.82823], [-73.9346, 40.82821], [-73.93459, 40.8282], [-73.93459, 40.82816], [-73.93456, 40.82816], [-73.93456, 40.82812], [-73.93455, 40.82805], [-73.93454, 40.82803], [-73.93453, 40.82797], [-73.93452, 40.82791], [-73.93454, 40.8279], [-73.93453, 40.82785], [-73.93452, 40.82777], [-73.93452, 40.82773], [-73.93442, 40.82704], [-73.93448, 40.82704], [-73.93446, 40.82684], [-73.93443, 40.82647], [-73.93437, 40.82583], [-73.93436, 40.82582], [-73.93433, 40.82523], [-73.9343, 40.82465], [-73.93429, 40.8245], [-73.93427, 40.82444], [-73.93425, 40.82417], [-73.93422, 40.8238], [-73.93417, 40.82308], [-73.93415, 40.82303], [-73.93415, 40.82302], [-73.93413, 40.8228], [-73.93412, 40.82265], [-73.93412, 40.82252], [-73.9341, 40.8222], [-73.9341, 40.82214], [-73.9341, 40.8221], [-73.93409, 40.822], [-73.93408, 40.82181], [-73.93407, 40.82172], [-73.93408, 40.82169], [-73.93407, 40.82156], [-73.93404, 40.82118], [-73.93405, 40.82113], [-73.93404, 40.82095], [-73.93403, 40.82082], [-73.934, 40.8204], [-73.934, 40.82034], [-73.93398, 40.82], [-73.93399, 40.81997], [-73.93397, 40.81973], [-73.93383, 40.81972], [-73.93383, 40.8196], [-73.93383, 40.81957], [-73.93383, 40.81952], [-73.93412, 40.81955], [-73.93431, 40.81963], [-73.9344, 40.81967], [-73.93439, 40.81959], [-73.93438, 40.81933], [-73.93429, 40.8189], [-73.93424, 40.81865], [-73.93408, 40.81793], [-73.93407, 40.81783], [-73.93413, 40.81773], [-73.93424, 40.81755], [-73.93445, 40.81719], [-73.93464, 40.81691], [-73.93487, 40.81653], [-73.93576, 40.81533], [-73.93614, 40.81479], [-73.93621, 40.81467], [-73.93669, 40.81404], [-73.93714, 40.81342], [-73.93763, 40.81275], [-73.93814, 40.81207], [-73.93821, 40.81197], [-73.93831, 40.81182], [-73.93839, 40.81172], [-73.93864, 40.81138], [-73.93874, 40.81123], [-73.93902, 40.81086], [-73.93741, 40.81018], [-73.93581, 40.8095], [-73.93586, 40.80943], [-73.93626, 40.80886], [-73.93672, 40.80822], [-73.93718, 40.8076], [-73.93763, 40.80697], [-73.93809, 40.80635], [-73.93854, 40.80573], [-73.93869, 40.80579], [-73.94016, 40.80641], [-73.94177, 40.80709], [-73.94492, 40.80841], [-73.94499, 40.80845], [-73.94506, 40.80847], [-73.94774, 40.8096], [-73.94784, 40.80964], [-73.94792, 40.80968], [-73.95068, 40.81084], [-73.9521, 40.81144], [-73.95151, 40.81201], [-73.95098, 40.81252], [-73.95093, 40.81257], [-73.95035, 40.81316], [-73.94986, 40.8138], [-73.94963, 40.8141], [-73.94963, 40.8141], [-73.94963, 40.8141], [-73.94941, 40.81441], [-73.9492, 40.81472], [-73.94901, 40.81504], [-73.94883, 40.81536], [-73.94868, 40.81569], [-73.94836, 40.81637], [-73.94801, 40.81712], [-73.94767, 40.81785], [-73.94735, 40.81853], [-73.94704, 40.81921], [-73.94672, 40.81989], [-73.9464, 40.82057], [-73.94608, 40.82126], [-73.94515, 40.82088], [-73.9446, 40.82146], [-73.94405, 40.82205], [-73.94351, 40.82263], [-73.94292, 40.82326], [-73.94243, 40.82391], [-73.94196, 40.82455], [-73.9415, 40.82517], [-73.94105, 40.82579], [-73.94059, 40.82641], [-73.94014, 40.82704], [-73.93969, 40.82766], [-73.93925, 40.8283], [-73.93896, 40.82899], [-73.93864, 40.82974], [-73.939, 40.82989], [-73.93963, 40.83016], [-73.94017, 40.83038], [-73.94008, 40.83046], [-73.93999, 40.83073], [-73.93996, 40.83082], [-73.93996, 40.83082], [-73.93992, 40.83091], [-73.93992, 40.83091], [-73.93992, 40.83091], [-73.93987, 40.83099], [-73.93987, 40.83099], [-73.93987, 40.83099], [-73.9398, 40.83107], [-73.9398, 40.83107], [-73.9398, 40.83107], [-73.93973, 40.83114], [-73.93961, 40.83125], [-73.93961, 40.83125], [-73.93961, 40.83125], [-73.9395, 40.83137], [-73.93941, 40.83149], [-73.93941, 40.83149], [-73.93933, 40.83163], [-73.93927, 40.83176], [-73.93927, 40.83176], [-73.93927, 40.83176], [-73.93923, 40.8319], [-73.93913, 40.8321], [-73.93903, 40.83229], [-73.93895, 40.83242], [-73.93891, 40.83248], [-73.93877, 40.83266], [-73.93868, 40.8328], [-73.93863, 40.83286], [-73.93857, 40.83291], [-73.93838, 40.83311], [-73.93796, 40.83345], [-73.9373, 40.83398], [-73.93706, 40.83417], [-73.93701, 40.83419], [-73.9365, 40.83457], [-73.93573, 40.83516], [-73.93531, 40.83548], [-73.93506, 40.83568], [-73.93496, 40.83576], [-73.93486, 40.83598], [-73.9348, 40.83611], [-73.93475, 40.83609], [-73.93467, 40.83606], [-73.9346, 40.8361], [-73.93436, 40.8362]]]}}, {"type": "Feature", "properties": {"zone_id": 43, "zone": "Central Park", "borough": "Manhattan", "demand": 37}, "geometry": {"type": "Polygon", "coordinates": [[[-73.97255, 40.7649], [-73.97301, 40.76428], [-73.97364, 40.76457], [-73.97419, 40.76481], [-73.97623, 40.76567], [-73.97836, 40.76657], [-73.97908, 40.76688], [-73.98136, 40.76784], [-73.98132, 40.7679], [-73.98129, 40.76797], [-73.98129, 40.76797], [-73.98129, 40.76797], [-73.98128, 40.76804], [-73.98129, 40.76812], [-73.98133, 40.76819], [-73.98137, 40.76825], [-73.98145, 40.76832], [-73.98145, 40.76832], [-73.98145, 40.76832], [-73.98155, 40.76838], [-73.98155, 40.76838], [-73.98165, 40.76844], [-73.98102, 40.76927], [-73.98056, 40.7699], [-73.98011, 40.77053], [-73.97965, 40.77115], [-73.97919, 40.77178], [-73.97872, 40.77242], [-73.97828, 40.77303], [-73.97783, 40.77366], [-73.97737, 40.77428], [-73.97691, 40.77491], [-73.97646, 40.77553], [-73.97595, 40.77622], [-73.97546, 40.7769], [-73.975, 40.77753], [-73.97453, 40.77817], [-73.97407, 40.7788], [-73.97357, 40.77948], [-73.97172, 40.78202], [-73.97122, 40.78271], [-73.97076, 40.78334], [-73.9703, 40.78397], [-73.96983, 40.78461], [-73.96934, 40.78529], [-73.96884, 40.78597], [-73.96838, 40.7866], [-73.96793, 40.78722], [-73.96745, 40.78786], [-73.96701, 40.78848], [-73.96655, 40.78911], [-73.96609, 40.78973], [-73.96563, 40.79036], [-73.96518, 40.79099], [-73.96469, 40.79166], [-73.96418, 40.79236], [-73.96371, 40.79301], [-73.96281, 40.79424], [-73.96236, 40.79485], [-73.9619, 40.79548], [-73.96144, 40.79611], [-73.96098, 40.79674], [-73.96052, 40.79737], [-73.96004, 40.79804], [-73.95954, 40.79872], [-73.95908, 40.79935], [-73.95862, 40.79998], [-73.95833, 40.80036], [-73.95817, 40.80058], [-73.95786, 40.80051], [-73.95537, 40.79947], [-73.95529, 40.79943], [-73.95522, 40.7994], [-73.95516, 40.79938], [-73.95254, 40.79827], [-73.95245, 40.79824], [-73.95237, 40.79821], [-73.9496, 40.79705], [-73.94922, 40.79691], [-73.9494, 40.79663], [-73.9497, 40.79622], [-73.95016, 40.79559], [-73.95061, 40.79497], [-73.95111, 40.79428], [-73.9516, 40.79361], [-73.95207, 40.79297], [-73.95252, 40.79235], [-73.95298, 40.79172], [-73.95344, 40.79108], [-73.95389, 40.79047], [-73.9544, 40.78977], [-73.95482, 40.7892], [-73.95527, 40.78858], [-73.95578, 40.78791], [-73.95626, 40.78722], [-73.95672, 40.7866], [-73.95717, 40.78598], [-73.95764, 40.78534], [-73.9581, 40.78472], [-73.95856, 40.7841], [-73.959, 40.78347], [-73.95947, 40.78283], [-73.95992, 40.78221], [-73.96042, 40.78153], [-73.96092, 40.78085], [-73.96137, 40.78023], [-73.96184, 40.77958], [-73.9623, 40.77895], [-73.96277, 40.77831], [-73.96323, 40.77768], [-73.96373, 40.77701], [-73.96376, 40.77695], [-73.96423, 40.77631], [-73.96469, 40.77568], [-73.96515, 40.77504], [-73.96561, 40.77441], [-73.96607, 40.77377], [-73.96654, 40.77314], [-73.96704, 40.77246], [-73.96753, 40.77178], [-73.96799, 40.77115], [-73.96844, 40.77052], [-73.9689, 40.7699], [-73.96936, 40.76927], [-73.96982, 40.76865], [-73.97028, 40.76802], [-73.97073, 40.76739], [-73.97119, 40.76677], [-73.97165, 40.76614], [-73.9721, 40.76552], [-73.97255, 40.7649]]]}}, {"type": "Feature", "properties": {"zone_id": 50, "zone": "Clinton West", "borough": "Manhattan", "demand": 35}, "geometry": {"type": "Polygon", "coordinates": [[[-73.99668, 40.77351], [-73.99434, 40.77252], [-73.99425, 40.77253], [-73.99416, 40.77249], [-73.99383, 40.77293], [-73.99379, 40.7729], [-73.99373, 40.77286], [-73.99359, 40.77279], [-73.9935, 40.77275], [-73.99387, 40.77224], [-73.99378, 40.7722], [-73.99366, 40.77215], [-73.99091, 40.77099], [-73.9906, 40.77085], [-73.98806, 40.76979], [-73.98856, 40.76912], [-73.98905, 40.76844], [-73.9895, 40.76781], [-73.98996, 40.76719], [-73.99042, 40.76656], [-73.99088, 40.76593], [-73.99133, 40.76531], [-73.99179, 40.76468], [-73.99224, 40.76406], [-73.9927, 40.76343], [-73.99316, 40.76281], [-73.99361, 40.76218], [-73.99407, 40.76155], [-73.99453, 40.76093], [-73.99498, 40.7603], [-73.99547, 40.75963], [-73.99623, 40.75995], [-73.99831, 40.76082], [-74.00104, 40.76197], [-74.00115, 40.76203], [-74.00128, 40.76208], [-74.00134, 40.76221], [-74.00153, 40.76264], [-74.00376, 40.76358], [-74.00361, 40.76378], [-74.00139, 40.76285], [-74.00097, 40.76342], [-74.00315, 40.76433], [-74.00295, 40.76462], [-74.00306, 40.76467], [-74.00313, 40.76465], [-74.00316, 40.76461], [-74.00322, 40.76464], [-74.00316, 40.76473], [-74.00315, 40.76474], [-74.00314, 40.76474], [-74.00312, 40.76474], [-74.00311, 40.76475], [-74.0031, 40.76475], [-74.00309, 40.76474], [-74.00106, 40.76389], [-74.00073, 40.76375], [-73.99993, 40.76341], [-73.99964, 40.76357], [-73.99962, 40.76356], [-73.99952, 40.76371], [-73.99945, 40.76381], [-73.99943, 40.76382], [-73.99915, 40.7642], [-74.00227, 40.76552], [-74.00229, 40.76556], [-74.00206, 40.76588], [-74.00202, 40.76589], [-73.9992, 40.7647], [-73.99911, 40.76466], [-73.99888, 40.76457], [-73.99858, 40.765], [-73.9986, 40.76507], [-73.99863, 40.76509], [-73.99867, 40.7651], [-73.99869, 40.76514], [-73.9987, 40.76517], [-73.99869, 40.76521], [-73.99867, 40.76524], [-73.99863, 40.76526], [-73.99859, 40.76528], [-73.99848, 40.7653], [-73.99844, 40.76532], [-73.9984, 40.76535], [-73.99827, 40.76555], [-73.99828, 40.76557], [-74.00154, 40.76694], [-74.00157, 40.76698], [-74.00156, 40.767], [-74.00139, 40.76723], [-74.00136, 40.76725], [-74.00131, 40.76725], [-74.00129, 40.76724], [-73.99816, 40.76589], [-73.99815, 40.76591], [-73.99807, 40.76587], [-73.99772, 40.76635], [-73.99738, 40.76682], [-74.00063, 40.7682], [-74.00065, 40.76822], [-74.00065, 40.76824], [-74.00045, 40.7685], [-74.00042, 40.76851], [-74.00039, 40.7685], [-73.99716, 40.76713], [-73.99682, 40.7676], [-73.99646, 40.7681], [-73.99973, 40.76947], [-73.99974, 40.76951], [-73.99955, 40.76975], [-73.99952, 40.76977], [-73.99947, 40.76976], [-73.99707, 40.76873], [-73.99703, 40.76879], [-73.99715, 40.76885], [-73.99701, 40.76903], [-73.99689, 40.76898], [-73.99657, 40.76942], [-73.99903, 40.77046], [-73.99876, 40.77082], [-73.99631, 40.7698], [-73.99588, 40.7704], [-73.99602, 40.77045], [-73.9959, 40.77061], [-73.99577, 40.77055], [-73.99542, 40.77103], [-73.99576, 40.77116], [-73.99571, 40.77123], [-73.9958, 40.77128], [-73.99582, 40.77126], [-73.99591, 40.7713], [-73.99593, 40.77127], [-73.996, 40.77131], [-73.9959, 40.77145], [-73.99589, 40.77145], [-73.99585, 40.7715], [-73.99579, 40.77148], [-73.99583, 40.77142], [-73.99573, 40.77138], [-73.99575, 40.77135], [-73.99563, 40.77132], [-73.99562, 40.77134], [-73.99531, 40.7712], [-73.99512, 40.77145], [-73.99499, 40.77144], [-73.99496, 40.77145], [-73.99493, 40.77147], [-73.99492, 40.77149], [-73.99493, 40.77152], [-73.99501, 40.77161], [-73.99498, 40.77164], [-73.99498, 40.77166], [-73.99711, 40.77255], [-73.99691, 40.77283], [-73.99477, 40.77193], [-73.99444, 40.77238], [-73.99545, 40.7728], [-73.99554, 40.77267], [-73.99645, 40.77306], [-73.99636, 40.77318], [-73.99623, 40.77313], [-73.99614, 40.77325], [-73.99656, 40.77341], [-73.99669, 40.7735], [-73.99668, 40.77351]]]}}, {"type": "Feature", "properties": {"zone_id": 68, "zone": "East Chelsea", "borough": "Manhattan", "demand": 42}, "geometry": {"type": "Polygon", "coordinates": [[[-74.00202, 40.74044], [-74.00252, 40.73975], [-74.00311, 40.74], [-74.00516, 40.74086], [-74.00537, 40.74094], [-74.00697, 40.74163], [-74.00779, 40.74197], [-74.0082, 40.74215], [-74.0079, 40.74257], [-74.0077, 40.74283], [-74.00724, 40.74347], [-74.00697, 40.74385], [-74.00681, 40.74406], [-74.00638, 40.74465], [-74.00596, 40.74523], [-74.00553, 40.74582], [-74.00511, 40.7464], [-74.00465, 40.74702], [-74.00417, 40.74769], [-74.0039, 40.74805], [-74.00368, 40.74835], [-74.00324, 40.74897], [-74.00316, 40.74908], [-74.00313, 40.74912], [-74.00278, 40.74959], [-74.00246, 40.75004], [-74.00243, 40.75007], [-74.00233, 40.75021], [-74.00188, 40.75083], [-74.00143, 40.75145], [-74.00097, 40.75205], [-74.00086, 40.75221], [-74.00053, 40.75269], [-74.00002, 40.75339], [-73.99992, 40.75352], [-73.99963, 40.75392], [-73.99914, 40.75458], [-73.99866, 40.75525], [-73.99821, 40.75587], [-73.99776, 40.75649], [-73.99731, 40.75711], [-73.99577, 40.75645], [-73.99511, 40.75618], [-73.99501, 40.75614], [-73.99447, 40.75591], [-73.99163, 40.75471], [-73.99208, 40.75409], [-73.99253, 40.75347], [-73.99298, 40.75285], [-73.99346, 40.75219], [-73.99395, 40.75152], [-73.99438, 40.75093], [-73.99484, 40.75029], [-73.9953, 40.74967], [-73.99575, 40.74905], [-73.9962, 40.74844], [-73.99665, 40.74782], [-73.9971, 40.7472], [-73.99755, 40.74658], [-73.99801, 40.74595], [-73.99849, 40.74529], [-73.99897, 40.74463], [-73.99942, 40.74401], [-73.99985, 40.74342], [-74.00027, 40.74284], [-74.0007, 40.74225], [-74.00113, 40.74167], [-74.00156, 40.74108], [-74.00202, 40.74044]]]}}, {"type": "Feature", "properties": {"zone_id": 87, "zone": "Financial District North", "borough": "Manhattan", "demand": 43}, "geometry": {"type": "Polygon", "coordinates": [[[-74.00372, 40.70693], [-74.00361, 40.70678], [-74.00316, 40.70623], [-74.00307, 40.70614], [-74.00303, 40.70611], [-74.00299, 40.70608], [-74.00295, 40.70603], [-74.00257, 40.70552], [-74.00268, 40.70545], [-74.00236, 40.70516], [-74.00242, 40.70513], [-74.00238, 40.7051], [-74.00197, 40.70474], [-74.00197, 40.70473], [-74.00217, 40.70461], [-74.00219, 40.70461], [-74.00233, 40.70475], [-74.00233, 40.70474], [-74.00242, 40.70468], [-74.00243, 40.70468], [-74.00249, 40.70473], [-74.00249, 40.70473], [-74.0024, 40.70479], [-74.00239, 40.7048], [-74.00332, 40.70563], [-74.00358, 40.70546], [-74.00363, 40.70543], [-74.00361, 40.70541], [-74.00356, 40.70544], [-74.00288, 40.70483], [-74.00297, 40.70477], [-74.00358, 40.7053], [-74.00365, 40.70538], [-74.00362, 40.7054], [-74.00364, 40.70542], [-74.00383, 40.7053], [-74.00395, 40.7054], [-74.00438, 40.70511], [-74.00427, 40.70501], [-74.00459, 40.7048], [-74.00459, 40.70479], [-74.0035, 40.7038], [-74.00351, 40.70379], [-74.00372, 40.70365], [-74.00397, 40.70388], [-74.00481, 40.70464], [-74.00484, 40.70464], [-74.00492, 40.70459], [-74.00519, 40.70442], [-74.00511, 40.70435], [-74.00508, 40.70437], [-74.00493, 40.70421], [-74.005, 40.70416], [-74.00516, 40.70432], [-74.00514, 40.70433], [-74.00521, 40.70441], [-74.00526, 40.70437], [-74.00535, 40.70431], [-74.00418, 40.70325], [-74.00418, 40.70325], [-74.00416, 40.70323], [-74.00416, 40.70323], [-74.00421, 40.7032], [-74.00412, 40.70311], [-74.00427, 40.70302], [-74.0043, 40.70302], [-74.00433, 40.70304], [-74.00435, 40.70305], [-74.00437, 40.70307], [-74.00439, 40.70309], [-74.00442, 40.70312], [-74.00444, 40.70314], [-74.00448, 40.70318], [-74.00463, 40.7033], [-74.00463, 40.70331], [-74.00465, 40.70333], [-74.00467, 40.70335], [-74.00468, 40.70335], [-74.00475, 40.70342], [-74.0048, 40.70348], [-74.00484, 40.70351], [-74.00499, 40.70364], [-74.00503, 40.70367], [-74.0051, 40.70373], [-74.00521, 40.70382], [-74.00528, 40.70387], [-74.00535, 40.70392], [-74.00536, 40.70392], [-74.0054, 40.70394], [-74.00539, 40.70395], [-74.00559, 40.70408], [-74.0056, 40.70408], [-74.00564, 40.70411], [-74.00566, 40.7041], [-74.00589, 40.70396], [-74.00602, 40.70387], [-74.00614, 40.70398], [-74.00634, 40.70385], [-74.00643, 40.70379], [-74.0066, 40.70369], [-74.00635, 40.70349], [-74.00632, 40.70347], [-74.00591, 40.7031], [-74.00589, 40.70308], [-74.00548, 40.70271], [-74.00553, 40.70268], [-74.00551, 40.70267], [-74.00547, 40.70269], [-74.00544, 40.70266], [-74.00543, 40.70266], [-74.0053, 40.70256], [-74.00549, 40.70243], [-74.0055, 40.70243], [-74.00561, 40.70253], [-74.0056, 40.70254], [-74.00561, 40.70255], [-74.00559, 40.70257], [-74.0056, 40.70258], [-74.00559, 40.70259], [-74.00559, 40.7026], [-74.00558, 40.7026], [-74.00559, 40.70261], [-74.00554, 40.70265], [-74.00556, 40.70266], [-74.00568, 40.70258], [-74.00598, 40.70286], [-74.00624, 40.70308], [-74.00636, 40.70319], [-74.00649, 40.7033], [-74.00655, 40.70337], [-74.00656, 40.70336], [-74.00676, 40.70354], [-74.00678, 40.70357], [-74.00699, 40.70344], [-74.00722, 40.7033], [-74.00752, 40.70312], [-74.00753, 40.70311], [-74.0076, 40.70299], [-74.00764, 40.703], [-74.0078, 40.70306], [-74.00783, 40.70309], [-74.00785, 40.70311], [-74.00798, 40.70319], [-74.00854, 40.7037], [-74.00899, 40.70408], [-74.00908, 40.70417], [-74.00945, 40.70453], [-74.00975, 40.70477], [-74.00998, 40.70515], [-74.01, 40.70533], [-74.00987, 40.7058], [-74.01119, 40.70628], [-74.01187, 40.70655], [-74.0124, 40.70678], [-74.01251, 40.70677], [-74.01195, 40.70745], [-74.0117, 40.70776], [-74.01125, 40.7083], [-74.01118, 40.70839], [-74.01101, 40.70859], [-74.01085, 40.7088], [-74.01054, 40.70915], [-74.00999, 40.70981], [-74.00954, 40.71033], [-74.00947, 40.71041], [-74.00906, 40.71089], [-74.00774, 40.71022], [-74.00705, 40.70987], [-74.00644, 40.70956], [-74.00551, 40.70909], [-74.00526, 40.70892], [-74.00506, 40.70879], [-74.00479, 40.7084], [-74.00433, 40.70782], [-74.00406, 40.70744], [-74.00392, 40.70724], [-74.00372, 40.70693]]]}}, {"type": "Feature", "properties": {"zone_id": 202, "zone": "Roosevelt Island", "borough": "Manhattan", "demand": 34}, "geometry": {"type": "Polygon", "coordinates": [[[-73.9418, 40.76905], [-73.94257, 40.76851], [-73.94286, 40.7683], [-73.94322, 40.76789], [-73.94381, 40.76722], [-73.94422, 40.76666], [-73.94484, 40.76582], [-73.94624, 40.76428], [-73.94662, 40.76386], [-73.94682, 40.76362], [-73.94709, 40.7633], [-73.94788, 40.76237], [-73.94793, 40.76231], [-73.94832, 40.76185], [-73.94833, 40.76184], [-73.94897, 40.76109], [-73.94943, 40.76055], [-73.94971, 40.76033], [-73.95033, 40.75986], [-73.95126, 40.75881], [-73.95149, 40.75867], [-73.95171, 40.75846], [-73.95178, 40.7584], [-73.95209, 40.75799], [-73.95218, 40.75783], [-73.95221, 40.75758], [-73.95254, 40.75709], [-73.95312, 40.75652], [-73.95322, 40.75643], [-73.95327, 40.75638], [-73.95331, 40.75634], [-73.95335, 40.75631], [-73.95341, 40.75626], [-73.9541, 40.75565], [-73.95507, 40.7548], [-73.95519, 40.75477], [-73.95579, 40.75416], [-73.95692, 40.75296], [-73.95721, 40.75271], [-73.95791, 40.75211], [-73.95861, 40.75161], [-73.95904, 40.75139], [-73.95903, 40.7513], [-73.95941, 40.75095], [-73.95956, 40.75081], [-73.9599, 40.75056], [-73.96039, 40.75026], [-73.96083, 40.74991], [-73.96104, 40.74967], [-73.96117, 40.7495], [-73.96142, 40.7494], [-73.96158, 40.74941], [-73.96161, 40.74956], [-73.96155, 40.74977], [-73.96132, 40.75007], [-73.96111, 40.7506], [-73.96071, 40.75115], [-73.96027, 40.75158], [-73.96001, 40.75183], [-73.95949, 40.75297], [-73.95902, 40.75359], [-73.95893, 40.75356], [-73.95846, 40.75395], [-73.95768, 40.75482], [-73.95689, 40.7557], [-73.95646, 40.75619], [-73.95599, 40.75672], [-73.95565, 40.75709], [-73.95559, 40.75722], [-73.95557, 40.75726], [-73.95553, 40.7573], [-73.9555, 40.75733], [-73.95546, 40.75738], [-73.95545, 40.7574], [-73.95499, 40.75793], [-73.95366, 40.7595], [-73.95332, 40.75975], [-73.95339, 40.7598], [-73.95312, 40.76005], [-73.95298, 40.75996], [-73.95231, 40.76063], [-73.95209, 40.76086], [-73.95188, 40.76124], [-73.95162, 40.76168], [-73.95097, 40.76249], [-73.95094, 40.76257], [-73.95073, 40.76276], [-73.95038, 40.76317], [-73.94997, 40.76365], [-73.9492, 40.76427], [-73.94909, 40.76426], [-73.94881, 40.76461], [-73.9477, 40.76602], [-73.94655, 40.76737], [-73.94591, 40.76821], [-73.94585, 40.76825], [-73.94584, 40.76832], [-73.94575, 40.7683], [-73.9457, 40.76833], [-73.9456, 40.76847], [-73.94548, 40.76862], [-73.94563, 40.76869], [-73.94556, 40.7688], [-73.9454, 40.76873], [-73.94538, 40.76876], [-73.94524, 40.76877], [-73.94516, 40.76912], [-73.94509, 40.76921], [-73.94472, 40.76973], [-73.94472, 40.76979], [-73.94467, 40.76982], [-73.94456, 40.76989], [-73.94427, 40.77014], [-73.944, 40.77029], [-73.9432, 40.77099], [-73.94282, 40.77141], [-73.94258, 40.7717], [-73.94213, 40.77203], [-73.94137, 40.77231], [-73.94089, 40.77237], [-73.94057, 40.77261], [-73.94027, 40.77295], [-73.94018, 40.77296], [-73.94008, 40.77293], [-73.94001, 40.77284], [-73.94018, 40.77256], [-73.94028, 40.7723], [-73.94028, 40.77171], [-73.9402, 40.77113], [-73.94023, 40.77085], [-73.94028, 40.77067], [-73.94036, 40.7705], [-73.94083, 40.76991], [-73.94112, 40.76941], [-73.94122, 40.76933], [-73.94126, 40.76931], [-73.9418, 40.76905]]]}}]}